{
  "type": "FeatureCollection",
  "generator": "overpass-turbo",
  "copyright": "The data included in this document is from www.openstreetmap.org. The data is made available under ODbL.",
  "timestamp": "2015-11-17T13:32:02Z",
  "features": [
    {
      "type": "Feature",
      "id": "node/29939632",
      "properties": {
        "@id": "node/29939632",
        "admin_level": "6",
        "capital": "yes",
        "is_in:continent": "Asia",
        "is_in:country": "Indonesia",
        "is_in:country_code": "ID",
        "is_in:island": "Java",
        "is_in:iso_3166_2": "ID-JK",
        "is_in:ocean": "Pacific",
        "name": "Jakarta",
        "name:af": "Djakarta",
        "name:am": "ጃካርታ",
        "name:ar": "جاكرتا",
        "name:arz": "جاكارتا",
        "name:az": "Cakarta",
        "name:ba": "Джакарта",
        "name:bat-smg": "Džakarta",
        "name:be": "Джакарта",
        "name:bg": "Джакарта",
        "name:bn": "জাকার্তা",
        "name:bo": "ཊ་ཁར་ཏ།",
        "name:bs": "Džakarta",
        "name:ckb": "جاکارتا",
        "name:de": "Jakarta",
        "name:el": "Τζακάρτα",
        "name:eo": "Ĝakarto",
        "name:es": "Yakarta",
        "name:fa": "جاکارتا",
        "name:fr": "Jakarta",
        "name:ga": "Iacárta",
        "name:gl": "Iacarta - Jakarta",
        "name:gu": "જાકાર્તા",
        "name:hak": "Ngâ-kâ-tha̍t Sú-tû Thi̍t-khî",
        "name:he": "ג'קרטה",
        "name:hi": "जकार्ता",
        "name:hy": "Ջակարտա",
        "name:id": "Daerah Khusus Ibukota Jakarta",
        "name:is": "Djakarta",
        "name:it": "Giacarta",
        "name:ja": "ジャカルタ",
        "name:jbo": ".djakartas.",
        "name:ka": "ჯაკარტა",
        "name:kk": "Джакарта",
        "name:km": "ចាការតា",
        "name:kn": "ಜಕಾರ್ತ",
        "name:ko": "자카르타",
        "name:ku": "Cakarta",
        "name:lmo": "Giacarta",
        "name:lt": "Džakarta",
        "name:lv": "Džakarta",
        "name:map-bms": "Daerah Khusus Ibukota Jakarta",
        "name:mhr": "Джакарта",
        "name:mk": "Џакарта",
        "name:ml": "ജക്കാർത്ത",
        "name:mn": "Жакарта",
        "name:mr": "जकार्ता",
        "name:mwl": "Jacarta",
        "name:my": "ဂျကာတာမြို့",
        "name:mzn": "جاکارتا",
        "name:nah": "Yakarta",
        "name:os": "Джакартæ",
        "name:pl": "Dżakarta",
        "name:pms": "Giacarta",
        "name:pnb": "جکارتہ",
        "name:ps": "جکارتا",
        "name:pt": "Jacarta",
        "name:roa-tara": "Giacarta",
        "name:ru": "Джакарта",
        "name:rue": "Джакарта",
        "name:sa": "जकार्ता",
        "name:sah": "Дьакарта",
        "name:sh": "Džakarta",
        "name:sk": "Džakarta",
        "name:sl": "Džakarta",
        "name:sq": "Xhakarta",
        "name:sr": "Џакарта",
        "name:sv": "Jakarta",
        "name:szl": "Dżakarta",
        "name:ta": "ஜகார்த்தா",
        "name:te": "జకార్తా",
        "name:th": "จาการ์ตา",
        "name:tr": "Cakarta",
        "name:ug": "جاكارتا",
        "name:uk": "Джакарта",
        "name:ur": "جکارتہ",
        "name:vec": "Xacarta",
        "name:yi": "דזשאקארטא",
        "name:za": "Yajgyadaz",
        "name:zh": "雅加達",
        "name:zh-yue": "耶加達",
        "place": "city",
        "population": "10187595",
        "wikipedia": "id:Jakarta",
        "wikipedia:en": "Jakarta",
        "@timestamp": "2015-09-01T02:29:46Z",
        "@version": 40,
        "@changeset": 33717424,
        "@user": "Farras",
        "@uid": 136807
      },
      "geometry": {
        "type": "Point",
        "coordinates": [
          106.8271826,
          -6.1753942
        ]
      }
    },
    {
      "type": "Feature",
      "id": "node/140022516",
      "properties": {
        "@id": "node/140022516",
        "addr:postcode": "43000",
        "is_in:country": "Malaysia",
        "is_in:county": "Kajang",
        "is_in:state": "Selangor",
        "name": "Kajang",
        "name:ja": "カジャン",
        "place": "city",
        "@timestamp": "2015-10-31T12:07:30Z",
        "@version": 13,
        "@changeset": 34990709,
        "@user": "etajin",
        "@uid": 2480327
      },
      "geometry": {
        "type": "Point",
        "coordinates": [
          101.7894868,
          2.9901101
        ]
      }
    },
    {
      "type": "Feature",
      "id": "node/141156064",
      "properties": {
        "@id": "node/141156064",
        "is_in": "Selangor, Malaysia",
        "name": "Bandar Baru Bangi",
        "name:ja": "バンダル バル バンギ,",
        "place": "city",
        "@timestamp": "2015-10-31T12:08:02Z",
        "@version": 6,
        "@changeset": 34990709,
        "@user": "etajin",
        "@uid": 2480327
      },
      "geometry": {
        "type": "Point",
        "coordinates": [
          101.7587559,
          2.9602968
        ]
      }
    },
    {
      "type": "Feature",
      "id": "node/142457861",
      "properties": {
        "@id": "node/142457861",
        "is_in": "Selangor, Malaysia",
        "is_in:country": "Malaysia",
        "is_in:state": "Selangor",
        "name": "Shah Alam",
        "name:ja": "シャー・アラム",
        "place": "city",
        "@timestamp": "2015-10-31T12:07:40Z",
        "@version": 10,
        "@changeset": 34990709,
        "@user": "etajin",
        "@uid": 2480327
      },
      "geometry": {
        "type": "Point",
        "coordinates": [
          101.5183418,
          3.0686213
        ]
      }
    },
    {
      "type": "Feature",
      "id": "node/205620850",
      "properties": {
        "@id": "node/205620850",
        "is_in": "Penang",
        "is_in:continent": "Asia",
        "is_in:country": "Malaysia",
        "is_in:country_code": "MY",
        "name": "George Town",
        "name:en": "George Town",
        "name:ja": "ジョージタウン",
        "name:ru": "Джорджтаун",
        "name:uk": "Джорджтаун",
        "name:zh": "乔治市",
        "place": "city",
        "@timestamp": "2015-10-31T12:07:41Z",
        "@version": 15,
        "@changeset": 34990709,
        "@user": "etajin",
        "@uid": 2480327
      },
      "geometry": {
        "type": "Point",
        "coordinates": [
          100.3303604,
          5.4166322
        ]
      }
    },
    {
      "type": "Feature",
      "id": "node/205623582",
      "properties": {
        "@id": "node/205623582",
        "is_in": "Pulau Pinang",
        "name": "Butterworth",
        "name:ja": "バターワース",
        "name:ru": "Баттеруэрт",
        "name:zh": "北海",
        "place": "city",
        "@timestamp": "2015-10-31T12:08:01Z",
        "@version": 12,
        "@changeset": 34990709,
        "@user": "etajin",
        "@uid": 2480327
      },
      "geometry": {
        "type": "Point",
        "coordinates": [
          100.3748721,
          5.3953964
        ]
      }
    },
    {
      "type": "Feature",
      "id": "node/207539494",
      "properties": {
        "@id": "node/207539494",
        "name": "Klang",
        "name:en": "Klang",
        "name:ja": "クラン",
        "name:ru": "Кланг",
        "name:uk": "Кланг",
        "place": "city",
        "@timestamp": "2015-10-31T12:07:34Z",
        "@version": 8,
        "@changeset": 34990709,
        "@user": "etajin",
        "@uid": 2480327
      },
      "geometry": {
        "type": "Point",
        "coordinates": [
          101.4492077,
          3.0471533
        ]
      }
    },
    {
      "type": "Feature",
      "id": "node/254072891",
      "properties": {
        "@id": "node/254072891",
        "is_in": "Kedah",
        "name": "Sungai Petani",
        "name:ja": "スンガイ プタニ",
        "name:ru": "Сунгай Петани",
        "name:uk": "Сунгай Петані",
        "place": "city",
        "wikidata": "Q939738",
        "@timestamp": "2015-10-31T12:07:42Z",
        "@version": 8,
        "@changeset": 34990709,
        "@user": "etajin",
        "@uid": 2480327
      },
      "geometry": {
        "type": "Point",
        "coordinates": [
          100.4916054,
          5.6439426
        ]
      }
    },
    {
      "type": "Feature",
      "id": "node/254073111",
      "properties": {
        "@id": "node/254073111",
        "is_in": "Pahang",
        "is_in:country": "Malaysia",
        "is_in:state": "Pahang",
        "name": "Temerloh",
        "name:ja": "テメルロー",
        "place": "city",
        "@timestamp": "2015-10-31T12:07:52Z",
        "@version": 9,
        "@changeset": 34990709,
        "@user": "etajin",
        "@uid": 2480327
      },
      "geometry": {
        "type": "Point",
        "coordinates": [
          102.4175715,
          3.4483344
        ]
      }
    },
    {
      "type": "Feature",
      "id": "node/254073298",
      "properties": {
        "@id": "node/254073298",
        "is_in": "Temerloh",
        "is_in:country": "Malaysia",
        "is_in:state": "Pahang",
        "name": "Mentakab",
        "name:ja": "メンタカブ",
        "place": "city",
        "@timestamp": "2015-10-31T12:08:20Z",
        "@version": 11,
        "@changeset": 34990709,
        "@user": "etajin",
        "@uid": 2480327
      },
      "geometry": {
        "type": "Point",
        "coordinates": [
          102.351643,
          3.4864838
        ]
      }
    },
    {
      "type": "Feature",
      "id": "node/254073469",
      "properties": {
        "@id": "node/254073469",
        "is_in:continent": "Asia",
        "is_in:country": "Malaysia",
        "is_in:state": "Selangor",
        "name": "Petaling Jaya",
        "name:ja": "プタリン・ジャヤ",
        "place": "city",
        "population": "638516",
        "@timestamp": "2015-10-31T12:08:13Z",
        "@version": 6,
        "@changeset": 34990709,
        "@user": "etajin",
        "@uid": 2480327
      },
      "geometry": {
        "type": "Point",
        "coordinates": [
          101.642697,
          3.1055929
        ]
      }
    },
    {
      "type": "Feature",
      "id": "node/254074193",
      "properties": {
        "@id": "node/254074193",
        "is_in": "Pahang",
        "is_in:country": "Malaysia",
        "is_in:state": "Pahang",
        "name": "Pekan",
        "name:ja": "ペカン",
        "place": "city",
        "@timestamp": "2015-10-31T12:08:15Z",
        "@version": 7,
        "@changeset": 34990709,
        "@user": "etajin",
        "@uid": 2480327
      },
      "geometry": {
        "type": "Point",
        "coordinates": [
          103.3934216,
          3.4902895
        ]
      }
    },
    {
      "type": "Feature",
      "id": "node/254237831",
      "properties": {
        "@id": "node/254237831",
        "is_in": "Johor Bahru, Johor, Malaysia",
        "is_in:continent": "Asia",
        "is_in:country": "Malaysia",
        "is_in:country_code": "MY",
        "name": "Johor Bahru",
        "name:en": "Johor Bahru",
        "name:ja": "ジョホールバル",
        "name:ru": "Джохор-Бару",
        "name:uk": "Джохор-Бару",
        "name:zh": "新山",
        "place": "city",
        "wikipedia": "en:Johor Bahru",
        "@timestamp": "2015-10-31T12:07:40Z",
        "@version": 10,
        "@changeset": 34990709,
        "@user": "etajin",
        "@uid": 2480327
      },
      "geometry": {
        "type": "Point",
        "coordinates": [
          103.7550839,
          1.4953041
        ]
      }
    },
    {
      "type": "Feature",
      "id": "node/256555232",
      "properties": {
        "@id": "node/256555232",
        "admin_level": "4",
        "capital": "yes",
        "is_in:continent": "Asia",
        "is_in:country": "Indonesia",
        "is_in:country_code": "ID",
        "is_in:island": "Java",
        "is_in:ocean": "Pacific",
        "name": "Semarang",
        "name:en": "Semarang",
        "name:ja": "スマラン",
        "name:kn": "ಸೆಮರಂಗ್",
        "name:ru": "Семаранг",
        "name:uk": "Семаранг",
        "name:zh": "三宝垄",
        "place": "city",
        "population": "1268292",
        "source:population": "http://id.wikipedia.org/wiki/Kota_Semarang",
        "@timestamp": "2015-10-31T12:07:41Z",
        "@version": 15,
        "@changeset": 34990709,
        "@user": "etajin",
        "@uid": 2480327
      },
      "geometry": {
        "type": "Point",
        "coordinates": [
          110.4229455,
          -6.9904038
        ]
      }
    },
    {
      "type": "Feature",
      "id": "node/260119406",
      "properties": {
        "@id": "node/260119406",
        "admin_level": "6",
        "alt_name": "Solo",
        "alt_name:jv": "Sala",
        "is_in": "Indonesia",
        "is_in:continent": "Asia",
        "is_in:country": "Indonesia",
        "is_in:country_code": "ID",
        "is_in:island": "Java",
        "is_in:ocean": "Pacific",
        "name": "Surakarta",
        "name:en": "Surakarta",
        "name:ja": "スラカルタ",
        "name:nl": "Surakarta",
        "name:ru": "Суракарта",
        "name:uk": "Суракарта",
        "name:zh": "梭罗",
        "place": "city",
        "population": "503421",
        "source:population": "http://id.wikipedia.org/wiki/Kota_Surakarta",
        "@timestamp": "2015-07-05T19:12:08Z",
        "@version": 13,
        "@changeset": 32433227,
        "@user": "Ezagren",
        "@uid": 1801604
      },
      "geometry": {
        "type": "Point",
        "coordinates": [
          110.828448,
          -7.5692462
        ]
      }
    },
    {
      "type": "Feature",
      "id": "node/262265665",
      "properties": {
        "@id": "node/262265665",
        "admin_level": "5",
        "name": "Kudus",
        "name:ja": "クドゥス",
        "place": "city",
        "@timestamp": "2015-10-31T12:07:33Z",
        "@version": 5,
        "@changeset": 34990709,
        "@user": "etajin",
        "@uid": 2480327
      },
      "geometry": {
        "type": "Point",
        "coordinates": [
          110.838189,
          -6.8170915
        ]
      }
    },
    {
      "type": "Feature",
      "id": "node/262265672",
      "properties": {
        "@id": "node/262265672",
        "name": "Demak",
        "name:ja": "デマック",
        "place": "city",
        "@timestamp": "2015-10-31T12:07:53Z",
        "@version": 5,
        "@changeset": 34990709,
        "@user": "etajin",
        "@uid": 2480327
      },
      "geometry": {
        "type": "Point",
        "coordinates": [
          110.6426465,
          -6.8874278
        ]
      }
    },
    {
      "type": "Feature",
      "id": "node/262265716",
      "properties": {
        "@id": "node/262265716",
        "name": "Pati",
        "place": "city",
        "@timestamp": "2014-01-15T11:04:22Z",
        "@version": 3,
        "@changeset": 20011498,
        "@user": "Bayu Adi Styawan",
        "@uid": 1705820
      },
      "geometry": {
        "type": "Point",
        "coordinates": [
          111.0399299,
          -6.7534288
        ]
      }
    },
    {
      "type": "Feature",
      "id": "node/262266254",
      "properties": {
        "@id": "node/262266254",
        "name": "Rembang",
        "place": "city",
        "@timestamp": "2014-01-15T11:04:22Z",
        "@version": 4,
        "@changeset": 20011498,
        "@user": "Bayu Adi Styawan",
        "@uid": 1705820
      },
      "geometry": {
        "type": "Point",
        "coordinates": [
          111.3486255,
          -6.7057563
        ]
      }
    },
    {
      "type": "Feature",
      "id": "node/262268273",
      "properties": {
        "@id": "node/262268273",
        "name": "Boyolali",
        "name:ja": "ボヨラリ",
        "place": "city",
        "@timestamp": "2015-10-31T12:08:15Z",
        "@version": 3,
        "@changeset": 34990709,
        "@user": "etajin",
        "@uid": 2480327
      },
      "geometry": {
        "type": "Point",
        "coordinates": [
          110.6041944,
          -7.5344079
        ]
      }
    },
    {
      "type": "Feature",
      "id": "node/262310617",
      "properties": {
        "@id": "node/262310617",
        "admin_level": "2",
        "capital": "yes",
        "is_in:continent": "Asia",
        "is_in:country": "East Timor",
        "is_in:country_code": "TL",
        "name": "Dili",
        "name:ar": "ديلي",
        "name:en": "Dili",
        "name:hu": "Dili",
        "name:ja": "ディリ",
        "name:kn": "ಡಿಲಿ",
        "name:ru": "Дили",
        "name:uk": "Ділі",
        "name:zh": "帝力",
        "place": "city",
        "wikipedia": "en:Dili",
        "@timestamp": "2015-10-31T12:07:53Z",
        "@version": 27,
        "@changeset": 34990709,
        "@user": "etajin",
        "@uid": 2480327
      },
      "geometry": {
        "type": "Point",
        "coordinates": [
          125.5784093,
          -8.5536809
        ]
      }
    },
    {
      "type": "Feature",
      "id": "node/262313641",
      "properties": {
        "@id": "node/262313641",
        "_P_CODE_": "17457.00000000000",
        "is_in:continent": "Asia",
        "is_in:country": "East Timor",
        "name": "Manatuto",
        "name:ja": "マナトゥト",
        "place": "city",
        "population": "12000",
        "source": "UN-OCHA",
        "wikipedia": "pt:Manatuto",
        "@timestamp": "2015-10-31T12:08:18Z",
        "@version": 5,
        "@changeset": 34990709,
        "@user": "etajin",
        "@uid": 2480327
      },
      "geometry": {
        "type": "Point",
        "coordinates": [
          126.01372,
          -8.51076
        ]
      }
    },
    {
      "type": "Feature",
      "id": "node/262314145",
      "properties": {
        "@id": "node/262314145",
        "is_in:country": "Indonesia",
        "is_in:country_code": "ID",
        "is_in:state": "East Nusa Tenggara",
        "name": "Kupang",
        "name:en": "Kupang",
        "name:ja": "クパン",
        "name:ru": "Купанг",
        "name:uk": "Купанг",
        "name:zh": "古邦",
        "place": "city",
        "state_capital": "yes",
        "wikipedia": "en:Kupang",
        "@timestamp": "2014-12-11T16:01:02Z",
        "@version": 11,
        "@changeset": 27401513,
        "@user": "andygol",
        "@uid": 94578
      },
      "geometry": {
        "type": "Point",
        "coordinates": [
          123.6017755,
          -10.1632209
        ]
      }
    },
    {
      "type": "Feature",
      "id": "node/264158895",
      "properties": {
        "@id": "node/264158895",
        "admin_level": "4",
        "capital": "yes",
        "is_in": "Java, Indonesia",
        "is_in:continent": "Asia",
        "is_in:country": "Indonesia",
        "is_in:country_code": "ID",
        "is_in:island": "Java",
        "is_in:ocean": "Pacific",
        "name": "Bandung",
        "name:en": "Bandung",
        "name:ja": "バンドン",
        "name:kn": "ಬಾಂದುಂಗ್",
        "name:nl": "Bandoeng",
        "name:ru": "Бандунг",
        "name:uk": "Бандунг",
        "name:zh": "万隆",
        "place": "city",
        "population": "2390120",
        "source:population": "http://id.wikipedia.org/wiki/Kota_Bandung",
        "@timestamp": "2015-10-31T12:08:03Z",
        "@version": 13,
        "@changeset": 34990709,
        "@user": "etajin",
        "@uid": 2480327
      },
      "geometry": {
        "type": "Point",
        "coordinates": [
          107.6049539,
          -6.9344694
        ]
      }
    },
    {
      "type": "Feature",
      "id": "node/264994734",
      "properties": {
        "@id": "node/264994734",
        "is_capital": "state",
        "is_in:continent": "Asia",
        "is_in:country": "Indonesia",
        "is_in:country_code": "ID",
        "is_in:island": "Flores",
        "is_in:state": "East Nusa Tenggara",
        "name": "Ende",
        "name:ja": "エンデ",
        "place": "city",
        "population": "60000",
        "@timestamp": "2015-10-31T12:07:30Z",
        "@version": 5,
        "@changeset": 34990709,
        "@user": "etajin",
        "@uid": 2480327
      },
      "geometry": {
        "type": "Point",
        "coordinates": [
          121.647964,
          -8.8439147
        ]
      }
    },
    {
      "type": "Feature",
      "id": "node/265911791",
      "properties": {
        "@id": "node/265911791",
        "_P_CODE_": "17486.00000000000",
        "is_in:continent": "Asia",
        "is_in:country": "East Timor",
        "name": "Aileu",
        "name:ja": "アイレウ",
        "place": "city",
        "population": "17326",
        "source": "UN-OCHA",
        "wikipedia": "pt:Aileu",
        "@timestamp": "2015-10-31T12:07:26Z",
        "@version": 6,
        "@changeset": 34990709,
        "@user": "etajin",
        "@uid": 2480327
      },
      "geometry": {
        "type": "Point",
        "coordinates": [
          125.5660897,
          -8.727963
        ]
      }
    },
    {
      "type": "Feature",
      "id": "node/265920664",
      "properties": {
        "@id": "node/265920664",
        "_P_CODE_": "15236.00000000000",
        "is_in:continent": "Asia",
        "is_in:country": "East Timor",
        "name": "Ainaro",
        "name:ja": "アイナロ",
        "name:zh": "阿伊納羅",
        "place": "city",
        "population": "14000",
        "source": "Geonames;UN-OCHA",
        "wikipedia": "pt:Ainaro",
        "@timestamp": "2015-10-31T12:07:26Z",
        "@version": 7,
        "@changeset": 34990709,
        "@user": "etajin",
        "@uid": 2480327
      },
      "geometry": {
        "type": "Point",
        "coordinates": [
          125.50482,
          -8.9969021
        ]
      }
    },
    {
      "type": "Feature",
      "id": "node/267554214",
      "properties": {
        "@id": "node/267554214",
        "capital": "4",
        "designation": "Kotamadya",
        "is_in": "North Sumatra, Indonesia, Asia",
        "is_in:continent": "Asia",
        "is_in:country": "Indonesia",
        "is_in:country_code": "ID",
        "name": "Medan",
        "name:en": "Medan",
        "name:hi": "मॆदान्",
        "name:ja": "メダン",
        "name:kn": "ಮೆದಾನ್",
        "name:lt": "Medanas",
        "name:ru": "Медан",
        "name:uk": "Медан",
        "place": "city",
        "population": "2102105",
        "wikipedia": "id:Kota_Medan",
        "@timestamp": "2015-10-31T12:08:20Z",
        "@version": 18,
        "@changeset": 34990709,
        "@user": "etajin",
        "@uid": 2480327
      },
      "geometry": {
        "type": "Point",
        "coordinates": [
          98.6738261,
          3.5896654
        ]
      }
    },
    {
      "type": "Feature",
      "id": "node/267556063",
      "properties": {
        "@id": "node/267556063",
        "capital": "4",
        "is_in:continent": "Asia",
        "is_in:country": "Indonesia",
        "is_in:country_code": "ID",
        "name": "Banda Aceh",
        "name:hi": "बंद अटॆ",
        "name:ja": "バンダ・アチェ",
        "name:kn": "ಬಂದ ಅಟೆ",
        "name:ru": "Банда Ачех",
        "place": "city",
        "population": "260000",
        "wikipedia": "en:Banda_Aceh",
        "@timestamp": "2015-10-31T12:08:02Z",
        "@version": 14,
        "@changeset": 34990709,
        "@user": "etajin",
        "@uid": 2480327
      },
      "geometry": {
        "type": "Point",
        "coordinates": [
          95.3192908,
          5.5528455
        ]
      }
    },
    {
      "type": "Feature",
      "id": "node/269588616",
      "properties": {
        "@id": "node/269588616",
        "capital": "yes",
        "name": "Probolinggo",
        "name:ja": "プロボリンゴ",
        "name:jv": "Prabalingga",
        "name:ru": "Проболинго",
        "name:zh": "龐越",
        "place": "city",
        "wikipedia": "id:Kota Probolinggo",
        "@timestamp": "2015-01-15T09:40:26Z",
        "@version": 7,
        "@changeset": 28156583,
        "@user": "a_isaeva",
        "@uid": 2335615
      },
      "geometry": {
        "type": "Point",
        "coordinates": [
          113.2158401,
          -7.7441461
        ]
      }
    },
    {
      "type": "Feature",
      "id": "node/271845399",
      "properties": {
        "@id": "node/271845399",
        "name": "Purworejo",
        "place": "city",
        "population:census:2003": "709000",
        "@timestamp": "2013-12-28T02:39:30Z",
        "@version": 4,
        "@changeset": 19672865,
        "@user": "Bayu Adi Styawan",
        "@uid": 1705820
      },
      "geometry": {
        "type": "Point",
        "coordinates": [
          110.0091162,
          -7.7130136
        ]
      }
    },
    {
      "type": "Feature",
      "id": "node/274113797",
      "properties": {
        "@id": "node/274113797",
        "is_in": "Denpasar,South Bali,Bali,Indonesia",
        "is_in:country": "Indonesia",
        "is_in:country_code": "ID",
        "name": "Denpasar",
        "name:en": "Denpasar",
        "name:ja": "デンパサール",
        "name:kn": "ಡೆಣ್ ಪಸರ್",
        "name:ru": "Денпасар",
        "name:uk": "Денпасар",
        "name:zh": "登巴萨",
        "place": "city",
        "population": "788445",
        "@timestamp": "2015-10-07T00:39:11Z",
        "@version": 12,
        "@changeset": 34481805,
        "@user": "okas95",
        "@uid": 165040
      },
      "geometry": {
        "type": "Point",
        "coordinates": [
          115.2191175,
          -8.6524973
        ]
      }
    },
    {
      "type": "Feature",
      "id": "node/275792450",
      "properties": {
        "@id": "node/275792450",
        "admin_level": "5",
        "capital": "yes",
        "name": "Kendal",
        "name:ja": "ケンダル",
        "place": "city",
        "@timestamp": "2015-10-31T12:07:35Z",
        "@version": 5,
        "@changeset": 34990709,
        "@user": "etajin",
        "@uid": 2480327
      },
      "geometry": {
        "type": "Point",
        "coordinates": [
          110.2040344,
          -6.9217033
        ]
      }
    },
    {
      "type": "Feature",
      "id": "node/275793445",
      "properties": {
        "@id": "node/275793445",
        "name": "Pekalongan",
        "name:ja": "ペカロンガン（",
        "place": "city",
        "wikipedia": "en:Pekalongan",
        "@timestamp": "2015-11-09T22:17:33Z",
        "@version": 4,
        "@changeset": 35203704,
        "@user": "etajin",
        "@uid": 2480327
      },
      "geometry": {
        "type": "Point",
        "coordinates": [
          109.6731758,
          -6.8939623
        ]
      }
    },
    {
      "type": "Feature",
      "id": "node/275793470",
      "properties": {
        "@id": "node/275793470",
        "name": "Pemalang",
        "place": "city",
        "@timestamp": "2014-01-15T11:04:21Z",
        "@version": 2,
        "@changeset": 20011498,
        "@user": "Bayu Adi Styawan",
        "@uid": 1705820
      },
      "geometry": {
        "type": "Point",
        "coordinates": [
          109.3804659,
          -6.8902943
        ]
      }
    },
    {
      "type": "Feature",
      "id": "node/275794327",
      "properties": {
        "@id": "node/275794327",
        "admin_level": "5",
        "is_in:continent": "Asia",
        "is_in:country": "Indonesia",
        "is_in:country_code": "ID",
        "is_in:island": "Java",
        "is_in:ocean": "Pacific",
        "name": "Tegal",
        "name:en": "Tegal",
        "name:ja": "トゥガル",
        "name:ru": "Тегал",
        "name:uk": "Тегал",
        "place": "city",
        "wikipedia": "en:Tegal,_Central_Java",
        "@timestamp": "2015-10-31T12:07:53Z",
        "@version": 11,
        "@changeset": 34990709,
        "@user": "etajin",
        "@uid": 2480327
      },
      "geometry": {
        "type": "Point",
        "coordinates": [
          109.1378833,
          -6.8673767
        ]
      }
    },
    {
      "type": "Feature",
      "id": "node/293644383",
      "properties": {
        "@id": "node/293644383",
        "is_in:archipelago": "Maluku",
        "is_in:continent": "Asia",
        "is_in:country": "Indonesia",
        "is_in:country_code": "ID",
        "is_in:island": "Ambon Island",
        "is_in:state": "Maluku",
        "name": "Ambon",
        "name:en": "Ambon",
        "name:ja": "アンボン",
        "name:ru": "Амбон",
        "name:uk": "Амбон",
        "name:zh": "安汶",
        "place": "city",
        "population": "275888",
        "wikipedia": "en:Ambon, Maluku",
        "@timestamp": "2014-12-11T15:57:17Z",
        "@version": 8,
        "@changeset": 27401453,
        "@user": "andygol",
        "@uid": 94578
      },
      "geometry": {
        "type": "Point",
        "coordinates": [
          128.178785,
          -3.6959434
        ]
      }
    },
    {
      "type": "Feature",
      "id": "node/294039311",
      "properties": {
        "@id": "node/294039311",
        "is_in:continent": "Asia",
        "is_in:country": "Malaysia",
        "is_in:country_code": "MY",
        "is_in:state": "Perak",
        "name": "Ipoh",
        "name:en": "Ipoh",
        "name:ja": "イポー",
        "name:ru": "Ипох",
        "name:uk": "Іпох",
        "name:zh": "怡保",
        "place": "city",
        "@timestamp": "2015-10-31T12:07:28Z",
        "@version": 11,
        "@changeset": 34990709,
        "@user": "etajin",
        "@uid": 2480327
      },
      "geometry": {
        "type": "Point",
        "coordinates": [
          101.0834105,
          4.5914171
        ]
      }
    },
    {
      "type": "Feature",
      "id": "node/296110116",
      "properties": {
        "@id": "node/296110116",
        "is_capital": "state",
        "is_in:continent": "Asia",
        "is_in:country": "Indonesia",
        "is_in:country_code": "ID",
        "is_in:island": "Sulawesi",
        "is_in:state": "Central Sulawesi",
        "name": "Palu",
        "name:en": "Palu",
        "name:ja": "パル",
        "name:ru": "Палу",
        "name:uk": "Палу",
        "name:zh": "帕盧",
        "place": "city",
        "population": "270000",
        "wikipedia": "en:Palu",
        "@timestamp": "2014-12-14T11:20:17Z",
        "@version": 5,
        "@changeset": 27455325,
        "@user": "andygol",
        "@uid": 94578
      },
      "geometry": {
        "type": "Point",
        "coordinates": [
          119.8679974,
          -0.8957793
        ]
      }
    },
    {
      "type": "Feature",
      "id": "node/297406682",
      "properties": {
        "@id": "node/297406682",
        "alt_name": "Macassar, Mangkasar",
        "is_in:continent": "Asia",
        "is_in:country": "Indonesia",
        "is_in:country_code": "ID",
        "is_in:island": "Sulawesi",
        "is_in:state": "South Sulawesi",
        "name": "Makassar",
        "name:en": "Makassar",
        "name:hi": "मकस्सर",
        "name:ja": "マカッサル",
        "name:kn": "ಮಕಸ್ಸರ",
        "name:ru": "Макасар",
        "name:uk": "Макассар",
        "name:zh": "望加锡",
        "old_name": "Ujung Pandang",
        "place": "city",
        "population": "1130384",
        "wikipedia": "en:Makassar",
        "@timestamp": "2014-12-10T22:38:52Z",
        "@version": 11,
        "@changeset": 27388015,
        "@user": "andygol",
        "@uid": 94578
      },
      "geometry": {
        "type": "Point",
        "coordinates": [
          119.4124282,
          -5.1342962
        ]
      }
    },
    {
      "type": "Feature",
      "id": "node/303545829",
      "properties": {
        "@id": "node/303545829",
        "is_in:continent": "Asia",
        "is_in:country": "Malaysia",
        "is_in:country_code": "MY",
        "is_in:island": "Borneo",
        "is_in:state": "Sabah",
        "name": "Kota Kinabalu",
        "name:en": "Kota Kinabalu",
        "name:ja": "コタキナバル",
        "name:kn": "ಕೊತ ಕಿನಾಬಲು",
        "name:ru": "Кота-Кинабалу",
        "name:uk": "Кота-Кінабалу",
        "name:zh": "亚庇",
        "old_name": "Jesselton",
        "place": "city",
        "population": "543765",
        "@timestamp": "2015-10-31T03:40:34Z",
        "@version": 10,
        "@changeset": 34984634,
        "@user": "etajin",
        "@uid": 2480327
      },
      "geometry": {
        "type": "Point",
        "coordinates": [
          116.0728988,
          5.9780066
        ]
      }
    },
    {
      "type": "Feature",
      "id": "node/304981440",
      "properties": {
        "@id": "node/304981440",
        "is_in": "Sarawak, Malaysia",
        "is_in:country": "Malaysia",
        "name": "Bintulu",
        "name:en": "Bintulu",
        "name:ja": "ビントゥル",
        "place": "city",
        "@timestamp": "2015-10-31T12:08:08Z",
        "@version": 5,
        "@changeset": 34990709,
        "@user": "etajin",
        "@uid": 2480327
      },
      "geometry": {
        "type": "Point",
        "coordinates": [
          113.0472803,
          3.1874261
        ]
      }
    },
    {
      "type": "Feature",
      "id": "node/304982224",
      "properties": {
        "@id": "node/304982224",
        "is_in:country": "Malaysia",
        "name": "Miri",
        "name:en": "Miri",
        "name:ja": "ミリ",
        "name:ru": "Мири",
        "name:uk": "Мірі",
        "place": "city",
        "@timestamp": "2015-10-31T12:08:19Z",
        "@version": 8,
        "@changeset": 34990709,
        "@user": "etajin",
        "@uid": 2480327
      },
      "geometry": {
        "type": "Point",
        "coordinates": [
          113.9877673,
          4.3940792
        ]
      }
    },
    {
      "type": "Feature",
      "id": "node/314936121",
      "properties": {
        "@id": "node/314936121",
        "alt_name": "Klungkung",
        "name": "Semarapura",
        "place": "city",
        "wikipedia": "en:Semarapura",
        "@timestamp": "2014-03-25T23:45:56Z",
        "@version": 9,
        "@changeset": 21316013,
        "@user": "wvdp",
        "@uid": 436419
      },
      "geometry": {
        "type": "Point",
        "coordinates": [
          115.4032763,
          -8.5350173
        ]
      }
    },
    {
      "type": "Feature",
      "id": "node/317529477",
      "properties": {
        "@id": "node/317529477",
        "is_in": "North Sulawesi, Indonesia, Asia",
        "is_in:continent": "Asia",
        "is_in:country": "Indonesia",
        "is_in:country_code": "ID",
        "name": "Manado",
        "name:en": "Manado",
        "name:ja": "マナド",
        "name:ru": "Манадо",
        "name:uk": "Манадо",
        "name:zh": "万雅佬",
        "place": "city",
        "wikipedia": "en:Manado",
        "@timestamp": "2014-12-11T16:20:28Z",
        "@version": 8,
        "@changeset": 27401859,
        "@user": "andygol",
        "@uid": 94578
      },
      "geometry": {
        "type": "Point",
        "coordinates": [
          124.8408708,
          1.4900578
        ]
      }
    },
    {
      "type": "Feature",
      "id": "node/318881337",
      "properties": {
        "@id": "node/318881337",
        "admin_level": "5",
        "is_in:country": "Indonesia",
        "is_in:country_code": "ID",
        "is_in:province": "Banten",
        "name": "Tangerang",
        "name:ja": "タンゲラン",
        "place": "city",
        "@timestamp": "2015-11-09T22:17:32Z",
        "@version": 5,
        "@changeset": 35203704,
        "@user": "etajin",
        "@uid": 2480327
      },
      "geometry": {
        "type": "Point",
        "coordinates": [
          106.6408501,
          -6.1727031
        ]
      }
    },
    {
      "type": "Feature",
      "id": "node/318882209",
      "properties": {
        "@id": "node/318882209",
        "is_in": "West Java, Indonesia, Asia",
        "name": "Bekasi",
        "name:ja": "ブカシ",
        "name:zh": "贝克西",
        "place": "city",
        "@timestamp": "2014-04-05T10:46:00Z",
        "@version": 4,
        "@changeset": 21511439,
        "@user": "Bayu Adi Styawan",
        "@uid": 1705820
      },
      "geometry": {
        "type": "Point",
        "coordinates": [
          106.9943156,
          -6.2348744
        ]
      }
    },
    {
      "type": "Feature",
      "id": "node/319887585",
      "properties": {
        "@id": "node/319887585",
        "is_in": "West Java, Indonesia, Asia",
        "name": "Bogor",
        "name:en": "Bogor",
        "name:ja": "ボゴール",
        "name:nl": "Buitenzorg",
        "name:ru": "Богор",
        "name:uk": "Богор",
        "name:zh": "茂物",
        "place": "city",
        "population": "834000",
        "source:population": "http://id.wikipedia.org/wiki/Kota_Bogor",
        "@timestamp": "2014-12-14T12:35:07Z",
        "@version": 6,
        "@changeset": 27456926,
        "@user": "andygol",
        "@uid": 94578
      },
      "geometry": {
        "type": "Point",
        "coordinates": [
          106.7972421,
          -6.5962986
        ]
      }
    },
    {
      "type": "Feature",
      "id": "node/321322622",
      "properties": {
        "@id": "node/321322622",
        "alt_name": "Malacca",
        "int_name": "Malaka",
        "is_in:country": "Malaysia",
        "is_in:state": "Melaka",
        "name": "Melaka",
        "name:de": "Malakka",
        "name:en": "Malacca City",
        "name:es": "Ciudad de Malaca",
        "name:fr": "Malacca",
        "name:ja": "ムラカ",
        "name:kn": "ಮೆಲಕ್ಕ",
        "name:nl": "Malakka",
        "name:ru": "Малакка",
        "name:uk": "Малакка",
        "name:zh": "马六甲",
        "official_name": "Bandar raya Melaka",
        "place": "city",
        "population": "455300",
        "@timestamp": "2015-10-31T12:08:19Z",
        "@version": 12,
        "@changeset": 34990709,
        "@user": "etajin",
        "@uid": 2480327
      },
      "geometry": {
        "type": "Point",
        "coordinates": [
          102.255926,
          2.1908178
        ]
      }
    },
    {
      "type": "Feature",
      "id": "node/336641647",
      "properties": {
        "@id": "node/336641647",
        "is_in": "Riau, Indonesia",
        "name": "Pekanbaru",
        "name:en": "Pekanbaru",
        "name:ja": "プカンバル",
        "name:ru": "Пеканбару",
        "name:uk": "Пеканбару",
        "place": "city",
        "population": "903902",
        "source:population": "http://id.wikipedia.org/wiki/Pekanbaru",
        "@timestamp": "2015-10-31T12:08:13Z",
        "@version": 7,
        "@changeset": 34990709,
        "@user": "etajin",
        "@uid": 2480327
      },
      "geometry": {
        "type": "Point",
        "coordinates": [
          101.446032,
          0.5373412
        ]
      }
    },
    {
      "type": "Feature",
      "id": "node/342092420",
      "properties": {
        "@id": "node/342092420",
        "is_in": "North Sumatra, Indonesia",
        "name": "Tebing Tinggi",
        "name:en": "Tebing Tinggi",
        "name:ja": "トゥビン・ティンギ",
        "name:lt": "Tebing Tingis",
        "name:ru": "Тебингтинги",
        "place": "city",
        "population": "135000",
        "postal_code": "20600",
        "wikipedia": "id:Kota_Tebing_Tinggi",
        "@timestamp": "2015-10-31T12:07:54Z",
        "@version": 7,
        "@changeset": 34990709,
        "@user": "etajin",
        "@uid": 2480327
      },
      "geometry": {
        "type": "Point",
        "coordinates": [
          99.1623025,
          3.3273686
        ]
      }
    },
    {
      "type": "Feature",
      "id": "node/369488213",
      "properties": {
        "@id": "node/369488213",
        "is_in:continent": "Asia",
        "is_in:country": "Malaysia",
        "is_in:country_code": "MY",
        "name": "Kuala Terengganu",
        "name:en": "Kuala Terengganu",
        "name:ja": "クアラトレンガヌ",
        "name:ru": "Куала-Тренгану",
        "name:uk": "Куала-Тренггану",
        "place": "city",
        "@timestamp": "2015-10-31T12:07:32Z",
        "@version": 7,
        "@changeset": 34990709,
        "@user": "etajin",
        "@uid": 2480327
      },
      "geometry": {
        "type": "Point",
        "coordinates": [
          103.138313,
          5.3297015
        ]
      }
    },
    {
      "type": "Feature",
      "id": "node/369495900",
      "properties": {
        "@id": "node/369495900",
        "is_in:continent": "Asia",
        "name": "Limbang",
        "name:en": "Limbang Town",
        "name:ja": "リンバン",
        "place": "city",
        "wikipedia": "en:Limbang",
        "@timestamp": "2015-10-31T12:08:25Z",
        "@version": 7,
        "@changeset": 34990709,
        "@user": "etajin",
        "@uid": 2480327
      },
      "geometry": {
        "type": "Point",
        "coordinates": [
          115.0093036,
          4.7534355
        ]
      }
    },
    {
      "type": "Feature",
      "id": "node/369496638",
      "properties": {
        "@id": "node/369496638",
        "is_in": "Sabah, Malaysia",
        "is_in:continent": "Asia",
        "name": "Beaufort",
        "name:en": "Beaufort",
        "name:ja": "ビューホート",
        "name:ru": "Бьюфорт",
        "name:uk": "Бьюфорт",
        "place": "city",
        "wikipedia": "en:Beaufort, Malaysia",
        "@timestamp": "2015-10-31T12:08:08Z",
        "@version": 6,
        "@changeset": 34990709,
        "@user": "etajin",
        "@uid": 2480327
      },
      "geometry": {
        "type": "Point",
        "coordinates": [
          115.7564253,
          5.3582765
        ]
      }
    },
    {
      "type": "Feature",
      "id": "node/375735682",
      "properties": {
        "@id": "node/375735682",
        "is_capital": "state",
        "is_in:continent": "Asia",
        "is_in:country": "Indonesia",
        "is_in:country_code": "ID",
        "is_in:island": "Flores",
        "is_in:state": "East Nusa Tenggara",
        "name": "Bajawa",
        "name:ja": "バジャワ",
        "place": "city",
        "population": "40000",
        "@timestamp": "2015-10-31T12:08:00Z",
        "@version": 6,
        "@changeset": 34990709,
        "@user": "etajin",
        "@uid": 2480327
      },
      "geometry": {
        "type": "Point",
        "coordinates": [
          120.9733305,
          -8.7873513
        ]
      }
    },
    {
      "type": "Feature",
      "id": "node/413451054",
      "properties": {
        "@id": "node/413451054",
        "name": "Mataram",
        "name:en": "Mataram",
        "name:ja": "マタラム",
        "name:ru": "Матарам",
        "name:uk": "Матарам",
        "name:zh": "馬塔蘭",
        "place": "city",
        "wikipedia": "en:Mataram (city)",
        "@timestamp": "2014-12-14T12:28:41Z",
        "@version": 6,
        "@changeset": 27456808,
        "@user": "andygol",
        "@uid": 94578
      },
      "geometry": {
        "type": "Point",
        "coordinates": [
          116.1035157,
          -8.5851477
        ]
      }
    },
    {
      "type": "Feature",
      "id": "node/422445949",
      "properties": {
        "@id": "node/422445949",
        "is_in:country": "Malaysia",
        "is_in:state": "Negeri Sembilan",
        "name": "Seremban",
        "name:en": "Seremban",
        "name:ja": "スレンバン",
        "name:ru": "Серембан",
        "name:uk": "Серембан",
        "place": "city",
        "wikipedia": "en:Seremban",
        "@timestamp": "2015-10-31T12:07:42Z",
        "@version": 5,
        "@changeset": 34990709,
        "@user": "etajin",
        "@uid": 2480327
      },
      "geometry": {
        "type": "Point",
        "coordinates": [
          101.9344913,
          2.7247562
        ]
      }
    },
    {
      "type": "Feature",
      "id": "node/428813972",
      "properties": {
        "@id": "node/428813972",
        "is_in": "Ubud,South Bali,Bali,Indonesia",
        "name": "Tabanan",
        "place": "city",
        "@timestamp": "2010-12-31T08:50:36Z",
        "@version": 4,
        "@changeset": 6817336,
        "@user": "ygpratama",
        "@uid": 369805
      },
      "geometry": {
        "type": "Point",
        "coordinates": [
          115.1265683,
          -8.5392306
        ]
      }
    },
    {
      "type": "Feature",
      "id": "node/429157244",
      "properties": {
        "@id": "node/429157244",
        "is_in": "West Bali,Bali,Indonesia",
        "name": "Negara",
        "name:en": "Negara",
        "name:ja": "ネガラ",
        "name:ru": "Негара",
        "name:uk": "Негара",
        "place": "city",
        "wikipedia": "en:Negara, Bali",
        "@timestamp": "2015-10-31T12:07:57Z",
        "@version": 6,
        "@changeset": 34990709,
        "@user": "etajin",
        "@uid": 2480327
      },
      "geometry": {
        "type": "Point",
        "coordinates": [
          114.6218756,
          -8.3585536
        ]
      }
    },
    {
      "type": "Feature",
      "id": "node/430263239",
      "properties": {
        "@id": "node/430263239",
        "int_name": "Karangasem",
        "is_in": "East Bali,Bali,Indonesia",
        "name": "Amlapura",
        "name:ja": "アムラプラ",
        "place": "city",
        "@timestamp": "2015-10-31T12:07:27Z",
        "@version": 4,
        "@changeset": 34990709,
        "@user": "etajin",
        "@uid": 2480327
      },
      "geometry": {
        "type": "Point",
        "coordinates": [
          115.6135572,
          -8.4464252
        ]
      }
    },
    {
      "type": "Feature",
      "id": "node/445615869",
      "properties": {
        "@id": "node/445615869",
        "name": "Ciamis",
        "name:ja": "チアミス",
        "place": "city",
        "@timestamp": "2015-10-31T12:07:51Z",
        "@version": 3,
        "@changeset": 34990709,
        "@user": "etajin",
        "@uid": 2480327
      },
      "geometry": {
        "type": "Point",
        "coordinates": [
          108.3531539,
          -7.3266824
        ]
      }
    },
    {
      "type": "Feature",
      "id": "node/448090107",
      "properties": {
        "@id": "node/448090107",
        "name": "Kebumen",
        "name:ja": "ケブメン",
        "place": "city",
        "population:census:2008": "1241437",
        "wikipedia:id": "Kebumen, Kebumen",
        "@timestamp": "2015-10-31T12:07:35Z",
        "@version": 5,
        "@changeset": 34990709,
        "@user": "etajin",
        "@uid": 2480327
      },
      "geometry": {
        "type": "Point",
        "coordinates": [
          109.6519465,
          -7.6686894
        ]
      }
    },
    {
      "type": "Feature",
      "id": "node/448090119",
      "properties": {
        "@id": "node/448090119",
        "name": "Wonosobo",
        "place": "city",
        "population": "813726",
        "@timestamp": "2013-12-28T03:07:39Z",
        "@version": 4,
        "@changeset": 19673004,
        "@user": "Bayu Adi Styawan",
        "@uid": 1705820
      },
      "geometry": {
        "type": "Point",
        "coordinates": [
          109.9030206,
          -7.3586632
        ]
      }
    },
    {
      "type": "Feature",
      "id": "node/450552097",
      "properties": {
        "@id": "node/450552097",
        "name": "Blora",
        "name:ja": "ブローラ",
        "place": "city",
        "@timestamp": "2015-10-31T12:08:12Z",
        "@version": 3,
        "@changeset": 34990709,
        "@user": "etajin",
        "@uid": 2480327
      },
      "geometry": {
        "type": "Point",
        "coordinates": [
          111.4130521,
          -6.9691528
        ]
      }
    },
    {
      "type": "Feature",
      "id": "node/491068261",
      "properties": {
        "@id": "node/491068261",
        "name": "Dompu",
        "name:en": "Dompu",
        "name:ja": "ドンプ",
        "name:ru": "Домпу",
        "name:uk": "Домпу",
        "place": "city",
        "@timestamp": "2015-10-31T12:07:55Z",
        "@version": 7,
        "@changeset": 34990709,
        "@user": "etajin",
        "@uid": 2480327
      },
      "geometry": {
        "type": "Point",
        "coordinates": [
          118.4621733,
          -8.5355857
        ]
      }
    },
    {
      "type": "Feature",
      "id": "node/493345649",
      "properties": {
        "@id": "node/493345649",
        "is_in:continent": "Asia",
        "is_in:country": "East Timor",
        "name": "Lospalos",
        "place": "city",
        "population": "28000",
        "wikipedia": "pt:Lospalos",
        "@timestamp": "2012-09-24T16:39:34Z",
        "@version": 5,
        "@changeset": 13235767,
        "@user": "AmbiWeb",
        "@uid": 888456
      },
      "geometry": {
        "type": "Point",
        "coordinates": [
          127.003,
          -8.51861
        ]
      }
    },
    {
      "type": "Feature",
      "id": "node/494074921",
      "properties": {
        "@id": "node/494074921",
        "PFM:comment": "size 10-20K",
        "PFM:garmin_type": "0xa00",
        "_P_CODE_": "  15723.00000000000",
        "alt_name": "Vikeke",
        "is_in:continent": "Asia",
        "is_in:country": "East Timor",
        "name": "Viqueque",
        "place": "city",
        "source": "UN-OCHA",
        "wikipedia": "pt:Viqueque",
        "@timestamp": "2012-09-24T16:39:27Z",
        "@version": 6,
        "@changeset": 13235767,
        "@user": "AmbiWeb",
        "@uid": 888456
      },
      "geometry": {
        "type": "Point",
        "coordinates": [
          126.36576,
          -8.86729
        ]
      }
    },
    {
      "type": "Feature",
      "id": "node/503789390",
      "properties": {
        "@id": "node/503789390",
        "alt_name": "Tanjungpinang",
        "is_in": "Bintan, Riau Islands",
        "name": "Tanjung Pinang",
        "name:en": "Tanjung Pinang",
        "name:ja": "タンジュンピナン",
        "name:ru": "Танджунг-Пинанг",
        "name:uk": "Танджунг-Пінанг",
        "place": "city",
        "@timestamp": "2015-10-31T12:07:50Z",
        "@version": 4,
        "@changeset": 34990709,
        "@user": "etajin",
        "@uid": 2480327
      },
      "geometry": {
        "type": "Point",
        "coordinates": [
          104.446094,
          0.9236915
        ]
      }
    },
    {
      "type": "Feature",
      "id": "node/506735403",
      "properties": {
        "@id": "node/506735403",
        "is_in:country": "Indonesia",
        "is_in:state": "Kepulauan Riau",
        "name": "Batam",
        "name:en": "Batam City",
        "name:ja": "バタム",
        "name:nl": "Batam",
        "place": "city",
        "wikipedia": "en:Batam",
        "@timestamp": "2015-10-31T12:08:01Z",
        "@version": 5,
        "@changeset": 34990709,
        "@user": "etajin",
        "@uid": 2480327
      },
      "geometry": {
        "type": "Point",
        "coordinates": [
          104.0285189,
          1.1068747
        ]
      }
    },
    {
      "type": "Feature",
      "id": "node/525277257",
      "properties": {
        "@id": "node/525277257",
        "capital": "4",
        "is_in": "East Kalimantan, Indonesia",
        "name": "Samarinda",
        "name:en": "Samarinda",
        "name:ja": "サマリンダ",
        "name:ko": "사마린다",
        "name:ru": "Самаринда",
        "name:uk": "Самарінда",
        "name:zh": "沙馬林達",
        "place": "city",
        "population": "726223",
        "source:population": "http://id.wikipedia.org/wiki/Kota_Samarinda",
        "wikipedia": "en:Samarinda",
        "@timestamp": "2015-06-23T01:54:36Z",
        "@version": 16,
        "@changeset": 32151359,
        "@user": "Ezagren",
        "@uid": 1801604
      },
      "geometry": {
        "type": "Point",
        "coordinates": [
          117.1393089,
          -0.5017804
        ]
      }
    },
    {
      "type": "Feature",
      "id": "node/531668011",
      "properties": {
        "@id": "node/531668011",
        "admin_level": "2",
        "capital": "yes",
        "is_in:continent": "Asia",
        "is_in:country": "Singapore",
        "is_in:country_code": "SG",
        "name": "Singapore",
        "name:ace": "Singapura",
        "name:af": "Singapoer",
        "name:am": "ሲንጋፖር",
        "name:ar": "سنغافورة",
        "name:arz": "سينجابوره",
        "name:az": "Sinqapur",
        "name:ba": "Сингапур",
        "name:bat-smg": "Singapūrs",
        "name:bcl": "Singapore",
        "name:be": "Сінгапур",
        "name:be-x-old": "Сынгапур",
        "name:bg": "Сингапур",
        "name:bi": "Singapore",
        "name:bjn": "Singapura",
        "name:bn": "সিঙ্গাপুর",
        "name:bo": "སེང་ག་ཕོར།",
        "name:bpy": "সিঙ্গাপুর",
        "name:br": "Singapour",
        "name:bug": "Singapura",
        "name:bxr": "Сингапур",
        "name:ca": "Singapur",
        "name:cdo": "Sĭng-gă-pŏ̤",
        "name:ceb": "Singgapura",
        "name:ckb": "سینگاپور",
        "name:cs": "Singapur",
        "name:csb": "Singapùr",
        "name:cv": "Сингапур",
        "name:cy": "Singapore",
        "name:da": "Singapore",
        "name:de": "Singapur",
        "name:dv": "ސިންގަޕޫރު",
        "name:el": "Σιγκαπούρη",
        "name:en": "Singapore",
        "name:eo": "Singapuro",
        "name:es": "Singapur",
        "name:et": "Singapur",
        "name:ext": "Singapul",
        "name:fa": "سنگاپور",
        "name:ff": "Sinngapuur",
        "name:fi": "Singapore",
        "name:fo": "Singapor",
        "name:fr": "Singapour",
        "name:frp": "Singapor",
        "name:fy": "Singapore",
        "name:ga": "Singeapór",
        "name:gan": "新加坡",
        "name:gd": "Singeapòr",
        "name:gl": "Singapur - 新加坡",
        "name:gu": "સિંગાપુર",
        "name:gv": "Singapore",
        "name:ha": "Singapore",
        "name:hak": "Sîn-kâ-po",
        "name:haw": "Sinapoa",
        "name:he": "סינגפור",
        "name:hi": "सिंगापुर",
        "name:hif": "Singapore",
        "name:hr": "Singapur",
        "name:ht": "Sengapou",
        "name:hu": "Szingapúr",
        "name:hy": "Սինգապուրի Հանրապետություն",
        "name:id": "Singapura",
        "name:ie": "Singapor",
        "name:is": "Singapúr",
        "name:it": "Singapore",
        "name:ja": "シンガポール",
        "name:jbo": "singapura",
        "name:jv": "Singapura",
        "name:ka": "სინგაპური",
        "name:ki": "Singapore",
        "name:kk": "Сингапур",
        "name:kl": "Singapore",
        "name:km": "សិង្ហបុរី",
        "name:kn": "ಸಿಂಗಾಪುರ",
        "name:ko": "싱가포르",
        "name:ku": "Singapûr",
        "name:kv": "Сингапур",
        "name:kw": "Singapour",
        "name:la": "Singapura",
        "name:lb": "Singapur",
        "name:lez": "Сингапур",
        "name:li": "Singapore",
        "name:lij": "Scingapô",
        "name:lt": "Singapūras",
        "name:lv": "Singapūra",
        "name:map-bms": "Singapura",
        "name:mg": "Singapaoro",
        "name:mhr": "Сингапур",
        "name:mi": "Hingapoa",
        "name:mk": "Сингапур",
        "name:ml": "സിംഗപ്പൂർ",
        "name:mn": "Сингапур",
        "name:mr": "सिंगापूर",
        "name:ms": "Singapura",
        "name:mt": "Singapor",
        "name:my": "စင်ကာပူနိုင်ငံ",
        "name:mzn": "سنگاپور",
        "name:na": "Tsingapoar",
        "name:ne": "सिंगापुर",
        "name:nl": "Singapore",
        "name:nn": "Singapore",
        "name:no": "Singapore",
        "name:nov": "Singapore",
        "name:nv": "Sį́ʼgaboo",
        "name:oc": "Singapor",
        "name:or": "ସିଙ୍ଗାପୁର",
        "name:os": "Сингапур",
        "name:pa": "ਸਿੰਗਾਪੁਰ",
        "name:pam": "Singapore",
        "name:pl": "Singapur",
        "name:pms": "Singapor",
        "name:pnb": "سنگاپور",
        "name:ps": "سينګاپور",
        "name:pt": "Singapura",
        "name:ro": "Singapore",
        "name:roa-rup": "Singapore",
        "name:roa-tara": "Singapore",
        "name:ru": "Сингапур",
        "name:rue": "Сінґапур",
        "name:rw": "Singapore",
        "name:sa": "सिङ्गापुर",
        "name:sah": "Сингапур",
        "name:scn": "Singapura",
        "name:sco": "Singapore",
        "name:se": "Singapore",
        "name:sg": "Sïngäpûru",
        "name:simple": "Singapore",
        "name:sk": "Singapur",
        "name:sl": "Singapur",
        "name:sm": "Sigapoa",
        "name:so": "Singabuur",
        "name:sq": "Singapori",
        "name:sr": "Сингапур",
        "name:ss": "ISingapholo",
        "name:su": "Singapura",
        "name:sv": "Singapore",
        "name:sw": "Singapuri",
        "name:ta": "சிங்கப்பூர்",
        "name:te": "సింగపూరు",
        "name:tg": "Сингапур",
        "name:th": "ประเทศสิงคโปร์",
        "name:tl": "Singgapur",
        "name:tr": "Singapur",
        "name:tt": "Сингапур",
        "name:tzl": "Singapura",
        "name:udm": "Сингапур",
        "name:ug": "سىنگاپور",
        "name:uk": "Сінгапур",
        "name:ur": "سنگاپور",
        "name:vec": "Singapore",
        "name:vi": "Tân Gia Ba",
        "name:vo": "Singapurän",
        "name:war": "Singgapura",
        "name:wo": "Singapoor",
        "name:wuu": "新加坡",
        "name:xal": "Сингапурмудин Орн",
        "name:yi": "סינגאפור",
        "name:yo": "Singapore",
        "name:zh": "新加坡",
        "name:zh-min-nan": "Sin-ka-pho",
        "name:zh-yue": "星架坡",
        "name:zh_pinyin": "Xīnjiāpō",
        "place": "city",
        "population": "5076700",
        "rank": "0",
        "wikipedia": "en:Singapore",
        "@timestamp": "2015-06-11T12:14:16Z",
        "@version": 23,
        "@changeset": 31894942,
        "@user": "robin0van0der0vliet",
        "@uid": 2132393
      },
      "geometry": {
        "type": "Point",
        "coordinates": [
          103.852038,
          1.2904527
        ]
      }
    },
    {
      "type": "Feature",
      "id": "node/536415772",
      "properties": {
        "@id": "node/536415772",
        "is_in": "East Kalimantan, Indonesia",
        "name": "Bontang",
        "name:en": "Bontang",
        "name:ja": "ボンタン",
        "name:ru": "Бонтанг",
        "name:uk": "Бонтанг",
        "name:zh": "邦唐",
        "place": "city",
        "wikipedia": "en:Bontang",
        "@timestamp": "2014-12-14T11:16:06Z",
        "@version": 4,
        "@changeset": 27455238,
        "@user": "andygol",
        "@uid": 94578
      },
      "geometry": {
        "type": "Point",
        "coordinates": [
          117.4763107,
          0.113559
        ]
      }
    },
    {
      "type": "Feature",
      "id": "node/541933847",
      "properties": {
        "@id": "node/541933847",
        "is_in": "Papua, Indonesia",
        "name": "Merauke",
        "name:en": "Merauke",
        "name:ja": "メラウケ",
        "name:ru": "Мерауке",
        "name:uk": "Мерауке",
        "place": "city",
        "wikipedia": "id:Merauke",
        "@timestamp": "2015-11-03T22:39:02Z",
        "@version": 4,
        "@changeset": 35068117,
        "@user": "etajin",
        "@uid": 2480327
      },
      "geometry": {
        "type": "Point",
        "coordinates": [
          140.395582,
          -8.4902766
        ]
      }
    },
    {
      "type": "Feature",
      "id": "node/542116772",
      "properties": {
        "@id": "node/542116772",
        "is_in": "Gorontalo, Indonesia",
        "name": "Gorontalo",
        "name:en": "Gorontalo",
        "name:ja": "ゴロンタロ",
        "name:ru": "Горонтало",
        "name:uk": "Горонтало",
        "name:zh": "哥倫打洛",
        "place": "city",
        "population": "150000",
        "wikipedia": "en:Gorontalo (city)",
        "@timestamp": "2014-12-11T16:18:39Z",
        "@version": 5,
        "@changeset": 27401828,
        "@user": "andygol",
        "@uid": 94578
      },
      "geometry": {
        "type": "Point",
        "coordinates": [
          123.0594971,
          0.5384433
        ]
      }
    },
    {
      "type": "Feature",
      "id": "node/544513863",
      "properties": {
        "@id": "node/544513863",
        "capital": "4",
        "is_in": "Indonesia",
        "name": "Pontianak",
        "name:en": "Pontianak",
        "name:ja": "ポンティアナック",
        "name:ru": "Понтианак",
        "name:uk": "Понтіанак",
        "place": "city",
        "wikipedia": "en:Pontianak",
        "@timestamp": "2015-10-31T12:08:16Z",
        "@version": 9,
        "@changeset": 34990709,
        "@user": "etajin",
        "@uid": 2480327
      },
      "geometry": {
        "type": "Point",
        "coordinates": [
          109.3377087,
          -0.0228895
        ]
      }
    },
    {
      "type": "Feature",
      "id": "node/544517373",
      "properties": {
        "@id": "node/544517373",
        "admin_level": "5",
        "capital": "yes",
        "is_in": "South Kalimantan, Indonesia",
        "is_in:continent": "Asia",
        "is_in:country": "Indonesia",
        "is_in:country_code": "ID",
        "name": "Banjarmasin",
        "name:en": "Banjarmasin",
        "name:ja": "バンジャルマシン",
        "name:ru": "Банджармасин",
        "name:uk": "Банджармасин",
        "name:zh": "馬辰",
        "place": "city",
        "wikipedia": "en:Banjarmasin",
        "@timestamp": "2015-07-05T19:34:53Z",
        "@version": 9,
        "@changeset": 32433702,
        "@user": "Ezagren",
        "@uid": 1801604
      },
      "geometry": {
        "type": "Point",
        "coordinates": [
          114.5925828,
          -3.3187496
        ]
      }
    },
    {
      "type": "Feature",
      "id": "node/544519673",
      "properties": {
        "@id": "node/544519673",
        "admin_level": "5",
        "capital": "yes",
        "is_in": "Indonesia",
        "name": "Bandar Lampung",
        "name:en": "Lampung Town",
        "name:ja": "バンダールランプン",
        "name:lt": "Bandar Lampungas",
        "name:ms": "Bandar Lampung",
        "name:ru": "Бандар-Лампунг",
        "name:uk": "Бандар-Лампунг",
        "place": "city",
        "population": "921087",
        "wikipedia": "id:Kota_Bandar_Lampung",
        "@timestamp": "2015-10-31T12:08:03Z",
        "@version": 8,
        "@changeset": 34990709,
        "@user": "etajin",
        "@uid": 2480327
      },
      "geometry": {
        "type": "Point",
        "coordinates": [
          105.2643742,
          -5.4460713
        ]
      }
    },
    {
      "type": "Feature",
      "id": "node/545624718",
      "properties": {
        "@id": "node/545624718",
        "is_in": "South Tapanuli, North Sumatra, Indonesia",
        "name": "Padangsidempuan",
        "name:en": "Padang Sidempuan",
        "name:ja": "パダン サイデンプアン",
        "name:lt": "Padang Sidempuanas",
        "name:pl": "Padang Sidempuan",
        "name:ru": "Падангсидемпуан",
        "place": "city",
        "population": "178818",
        "wikipedia": "id:Kota Padangsidempuan",
        "@timestamp": "2015-10-31T12:08:05Z",
        "@version": 7,
        "@changeset": 34990709,
        "@user": "etajin",
        "@uid": 2480327
      },
      "geometry": {
        "type": "Point",
        "coordinates": [
          99.2727172,
          1.372696
        ]
      }
    },
    {
      "type": "Feature",
      "id": "node/545741079",
      "properties": {
        "@id": "node/545741079",
        "name": "Sabang",
        "name:en": "Sabang",
        "name:ja": "サバン",
        "name:lt": "Sabangas",
        "name:ru": "Сабанг",
        "name:uk": "Сабанг",
        "name:zh": "沙璜",
        "place": "city",
        "population": "35220",
        "wikipedia": "id:Kota_Sabang",
        "@timestamp": "2014-12-14T12:47:43Z",
        "@version": 7,
        "@changeset": 27457202,
        "@user": "andygol",
        "@uid": 94578
      },
      "geometry": {
        "type": "Point",
        "coordinates": [
          95.3225751,
          5.8927453
        ]
      }
    },
    {
      "type": "Feature",
      "id": "node/545807270",
      "properties": {
        "@id": "node/545807270",
        "is_in": "Indonesia",
        "name": "Ternate",
        "name:en": "Ternate",
        "name:ja": "テルナテ",
        "name:ru": "Тернате",
        "name:uk": "Тернате",
        "name:zh": "特爾納特",
        "place": "city",
        "wikipedia": "en:Ternate City",
        "@timestamp": "2015-10-31T03:40:42Z",
        "@version": 8,
        "@changeset": 34984634,
        "@user": "etajin",
        "@uid": 2480327
      },
      "geometry": {
        "type": "Point",
        "coordinates": [
          127.3831973,
          0.7852331
        ]
      }
    },
    {
      "type": "Feature",
      "id": "node/550072429",
      "properties": {
        "@id": "node/550072429",
        "is_in": "Indonesia",
        "is_in:country": "Indonesia",
        "is_in:county": "Banggai",
        "is_in:region": "Banggai Kepulauan",
        "is_in:state": "Sulawesi Tengah",
        "name": "Banggai",
        "name:ja": "バンガイ",
        "place": "city",
        "@timestamp": "2015-10-31T12:08:02Z",
        "@version": 3,
        "@changeset": 34990709,
        "@user": "etajin",
        "@uid": 2480327
      },
      "geometry": {
        "type": "Point",
        "coordinates": [
          123.5008494,
          -1.588821
        ]
      }
    },
    {
      "type": "Feature",
      "id": "node/558877091",
      "properties": {
        "@id": "node/558877091",
        "admin_level": "6",
        "name": "Kediri",
        "name:en": "Kediri",
        "name:ja": "クディリ",
        "name:ru": "Кедири",
        "name:uk": "Кедірі",
        "name:zh": "諫義里",
        "place": "city",
        "population": "267435",
        "@timestamp": "2015-08-12T11:54:30Z",
        "@version": 12,
        "@changeset": 33289705,
        "@user": "Ezagren",
        "@uid": 1801604
      },
      "geometry": {
        "type": "Point",
        "coordinates": [
          112.006239,
          -7.8136008
        ]
      }
    },
    {
      "type": "Feature",
      "id": "node/596718574",
      "properties": {
        "@id": "node/596718574",
        "name": "Dumai",
        "name:id": "Dumai",
        "name:ja": "ドゥマイ",
        "name:simple": "Dumai",
        "name:uk": "Думай",
        "place": "city",
        "@timestamp": "2015-10-31T12:07:54Z",
        "@version": 7,
        "@changeset": 34990709,
        "@user": "etajin",
        "@uid": 2480327
      },
      "geometry": {
        "type": "Point",
        "coordinates": [
          101.4532617,
          1.6815017
        ]
      }
    },
    {
      "type": "Feature",
      "id": "node/604396013",
      "properties": {
        "@id": "node/604396013",
        "admin_level": "5",
        "capital": "yes",
        "is_in": "East Java, Indonesia",
        "name": "Blitar",
        "name:ja": "ブリタール",
        "name:ru": "Блитар",
        "name:zh": "勿里達",
        "place": "city",
        "source": "GPS",
        "@timestamp": "2015-01-15T09:08:36Z",
        "@version": 11,
        "@changeset": 28156092,
        "@user": "a_isaeva",
        "@uid": 2335615
      },
      "geometry": {
        "type": "Point",
        "coordinates": [
          112.1650769,
          -8.0982442
        ]
      }
    },
    {
      "type": "Feature",
      "id": "node/620786541",
      "properties": {
        "@id": "node/620786541",
        "is_in": "Banyumas, Central Java, Indonesia",
        "name": "Purwokerto",
        "place": "city",
        "source": "Bing Maps",
        "wikipedia": "en:Purwokerto",
        "@timestamp": "2014-03-25T23:45:56Z",
        "@version": 7,
        "@changeset": 21316013,
        "@user": "wvdp",
        "@uid": 436419
      },
      "geometry": {
        "type": "Point",
        "coordinates": [
          109.2408501,
          -7.4279011
        ]
      }
    },
    {
      "type": "Feature",
      "id": "node/653399882",
      "properties": {
        "@id": "node/653399882",
        "admin_level": "5",
        "is_in": "Aceh, Indonesia",
        "name": "Lhokseumawe",
        "name:en": "Lhokseumawe",
        "name:ja": "ロークスマウェ",
        "name:lt": "Lhokseumavė",
        "name:ru": "Лхоксёмаве",
        "place": "city",
        "population": "220054",
        "wikipedia": "id:Kota_Lhokseumawe",
        "@timestamp": "2015-10-31T12:08:26Z",
        "@version": 11,
        "@changeset": 34990709,
        "@user": "etajin",
        "@uid": 2480327
      },
      "geometry": {
        "type": "Point",
        "coordinates": [
          97.1480544,
          5.1789659
        ]
      }
    },
    {
      "type": "Feature",
      "id": "node/676458200",
      "properties": {
        "@id": "node/676458200",
        "is_in": "Tawau, Sabah, Malaysia",
        "name": "Tawau",
        "name:en": "Tawau",
        "name:ja": "タワウ",
        "name:ru": "Тавау",
        "name:uk": "Тавау",
        "place": "city",
        "@timestamp": "2015-10-31T03:40:40Z",
        "@version": 3,
        "@changeset": 34984634,
        "@user": "etajin",
        "@uid": 2480327
      },
      "geometry": {
        "type": "Point",
        "coordinates": [
          117.8929619,
          4.2635238
        ]
      }
    },
    {
      "type": "Feature",
      "id": "node/676475517",
      "properties": {
        "@id": "node/676475517",
        "is_in": "Sarawak, Malaysia",
        "is_in:continent": "Asia",
        "is_in:country": "Malaysia",
        "is_in:country_code": "MY",
        "name": "Kuching",
        "name:en": "Kuching",
        "name:ja": "クチン",
        "name:ru": "Кучинг",
        "name:uk": "Кучінг",
        "place": "city",
        "@timestamp": "2015-10-31T12:07:33Z",
        "@version": 10,
        "@changeset": 34990709,
        "@user": "etajin",
        "@uid": 2480327
      },
      "geometry": {
        "type": "Point",
        "coordinates": [
          110.3454137,
          1.560091
        ]
      }
    },
    {
      "type": "Feature",
      "id": "node/676574228",
      "properties": {
        "@id": "node/676574228",
        "is_in:continent": "Asia",
        "is_in:country": "Indonesia",
        "is_in:country_code": "ID",
        "is_in:island": "Java",
        "is_in:ocean": "Pacific",
        "name": "Cianjur",
        "name:ja": "チアンジュール",
        "place": "city",
        "wikipedia": "en:Cianjur",
        "@timestamp": "2015-10-31T12:07:51Z",
        "@version": 6,
        "@changeset": 34990709,
        "@user": "etajin",
        "@uid": 2480327
      },
      "geometry": {
        "type": "Point",
        "coordinates": [
          107.1392952,
          -6.8224448
        ]
      }
    },
    {
      "type": "Feature",
      "id": "node/698789558",
      "properties": {
        "@id": "node/698789558",
        "is_in": "Pahang, Malaysia",
        "name": "Kuantan",
        "name:en": "Kuantan",
        "name:ja": "クアンタン",
        "name:ru": "Куантан",
        "name:uk": "Куантан",
        "name:zh": "关丹",
        "place": "city",
        "@timestamp": "2015-10-31T12:07:33Z",
        "@version": 6,
        "@changeset": 34990709,
        "@user": "etajin",
        "@uid": 2480327
      },
      "geometry": {
        "type": "Point",
        "coordinates": [
          103.3292929,
          3.8194136
        ]
      }
    },
    {
      "type": "Feature",
      "id": "node/699640686",
      "properties": {
        "@id": "node/699640686",
        "_P_CODE_": "17065.00000000000",
        "alt_name": "pt:Liquiçá",
        "is_in:continent": "Asia",
        "is_in:country": "East Timor",
        "name": "Likisá",
        "name:ja": "リキシャ",
        "place": "city",
        "source": "UN-OCHA",
        "wikipedia": "pt:Liquiçá",
        "@timestamp": "2015-10-31T12:08:24Z",
        "@version": 5,
        "@changeset": 34990709,
        "@user": "etajin",
        "@uid": 2480327
      },
      "geometry": {
        "type": "Point",
        "coordinates": [
          125.34209,
          -8.58767
        ]
      }
    },
    {
      "type": "Feature",
      "id": "node/736405240",
      "properties": {
        "@id": "node/736405240",
        "designation": "Kotamadya",
        "name": "Tanjung Balai",
        "name:en": "Tanjungbalai",
        "name:ja": "タンジュン バライ",
        "name:lt": "Tandžung Balajus",
        "place": "city",
        "population": "125000",
        "wikipedia": "id:Kota_Tanjungbalai",
        "@timestamp": "2015-10-31T12:07:50Z",
        "@version": 9,
        "@changeset": 34990709,
        "@user": "etajin",
        "@uid": 2480327
      },
      "geometry": {
        "type": "Point",
        "coordinates": [
          99.8033892,
          2.9715329
        ]
      }
    },
    {
      "type": "Feature",
      "id": "node/736405241",
      "properties": {
        "@id": "node/736405241",
        "name": "Pematangsiantar",
        "name:en": "Pematangsiantar",
        "name:ja": "ペマタンシアンタル",
        "name:ru": "Пематангсиантар",
        "place": "city",
        "population": "242756",
        "wikipedia": "id:Kota Pematangsiantar",
        "@timestamp": "2015-10-31T12:08:15Z",
        "@version": 7,
        "@changeset": 34990709,
        "@user": "etajin",
        "@uid": 2480327
      },
      "geometry": {
        "type": "Point",
        "coordinates": [
          99.0653646,
          2.9588631
        ]
      }
    },
    {
      "type": "Feature",
      "id": "node/746731552",
      "properties": {
        "@id": "node/746731552",
        "name": "Langsa",
        "name:en": "Langsa",
        "name:ja": "ランサ",
        "name:ru": "Лангса",
        "name:uk": "Лангса",
        "place": "city",
        "population": "147251",
        "wikipedia": "id:Kota_Langsa",
        "@timestamp": "2015-10-31T12:08:24Z",
        "@version": 4,
        "@changeset": 34990709,
        "@user": "etajin",
        "@uid": 2480327
      },
      "geometry": {
        "type": "Point",
        "coordinates": [
          97.9681841,
          4.4730892
        ]
      }
    },
    {
      "type": "Feature",
      "id": "node/763976609",
      "properties": {
        "@id": "node/763976609",
        "designation": "Kota",
        "fixme": "Where is the center of the city?",
        "name": "Binjai",
        "name:ja": "ビンジャイ",
        "name:lt": "Bindžajas",
        "name:ru": "Бинджай",
        "place": "city",
        "population": "232236",
        "wikipedia": "id:Kota_Binjai",
        "@timestamp": "2015-10-31T12:08:08Z",
        "@version": 9,
        "@changeset": 34990709,
        "@user": "etajin",
        "@uid": 2480327
      },
      "geometry": {
        "type": "Point",
        "coordinates": [
          98.4899865,
          3.6063964
        ]
      }
    },
    {
      "type": "Feature",
      "id": "node/806841357",
      "properties": {
        "@id": "node/806841357",
        "name": "Sorong",
        "name:en": "Sorong",
        "name:ja": "ソロン",
        "name:ru": "Соронг",
        "name:uk": "Соронг",
        "name:zh": "索龍",
        "place": "city",
        "wikipedia": "en:Sorong (city)",
        "@timestamp": "2015-11-14T00:37:40Z",
        "@version": 5,
        "@changeset": 35297619,
        "@user": "etajin",
        "@uid": 2480327
      },
      "geometry": {
        "type": "Point",
        "coordinates": [
          131.2544805,
          -0.8634105
        ]
      }
    },
    {
      "type": "Feature",
      "id": "node/861117370",
      "properties": {
        "@id": "node/861117370",
        "capital": "yes",
        "is_in": "Indonesia, Central Kalimantan",
        "name": "Palangka Raya",
        "name:en": "Palangka Raya",
        "name:ja": "パランカラヤ",
        "name:ru": "Паланкарая",
        "name:uk": "Паланкарая",
        "name:zh": "帕朗卡拉亚",
        "place": "city",
        "wikipedia": "en:Palangkaraya",
        "@timestamp": "2015-07-05T19:19:59Z",
        "@version": 7,
        "@changeset": 32433369,
        "@user": "Ezagren",
        "@uid": 1801604
      },
      "geometry": {
        "type": "Point",
        "coordinates": [
          113.9267408,
          -2.2100307
        ]
      }
    },
    {
      "type": "Feature",
      "id": "node/861317628",
      "properties": {
        "@id": "node/861317628",
        "alt_name": "Tanjungselor",
        "capital": "4",
        "is_in": "Indonesia",
        "name": "Tanjung Selor",
        "name:en": "Tanjung Selor",
        "name:ja": "タンジュン・セロル",
        "name:ru": "Танджунгселор",
        "place": "city",
        "wikipedia": "en:Tanjung Selor",
        "@timestamp": "2015-10-31T03:40:40Z",
        "@version": 6,
        "@changeset": 34984634,
        "@user": "etajin",
        "@uid": 2480327
      },
      "geometry": {
        "type": "Point",
        "coordinates": [
          117.3642043,
          2.8372052
        ]
      }
    },
    {
      "type": "Feature",
      "id": "node/910495998",
      "properties": {
        "@id": "node/910495998",
        "_P_CODE_": "17361.00000000000",
        "is_in:continent": "Asia",
        "is_in:country": "East Timor",
        "name": "Gleno",
        "name:ja": "グレノ",
        "name:lt": "Glenas",
        "place": "city",
        "population": "8133",
        "source": "UN-OCHA",
        "wikipedia": "pt:Gleno",
        "@timestamp": "2015-10-31T12:07:34Z",
        "@version": 8,
        "@changeset": 34990709,
        "@user": "etajin",
        "@uid": 2480327
      },
      "geometry": {
        "type": "Point",
        "coordinates": [
          125.4358593,
          -8.721148
        ]
      }
    },
    {
      "type": "Feature",
      "id": "node/931543356",
      "properties": {
        "@id": "node/931543356",
        "gns:dsg": "ISL",
        "is_in:country": "Indonesia",
        "is_in:country_code": "ID",
        "is_in:state": "Province of Nusa Tenggara Timur",
        "name": "Salura",
        "note": "GNS database update - Sept 20, 2010",
        "place": "city",
        "source": "NGA-GNS",
        "@timestamp": "2011-10-01T14:01:27Z",
        "@version": 4,
        "@changeset": 9442686,
        "@user": "jalan sumba",
        "@uid": 498419
      },
      "geometry": {
        "type": "Point",
        "coordinates": [
          120.183333,
          -10.316667
        ]
      }
    },
    {
      "type": "Feature",
      "id": "node/974358366",
      "properties": {
        "@id": "node/974358366",
        "is_in": "Sabah, Malaysia",
        "is_in:continent": "Asia",
        "name": "Sandakan",
        "name:en": "Sandakan",
        "name:ja": "サンダカン",
        "name:ru": "Сандакан",
        "name:uk": "Сандакан",
        "name:zh": "山打根",
        "name_1": "Little Hong Kong",
        "place": "city",
        "population": "479121",
        "wikipedia": "en:Sandakan",
        "@timestamp": "2015-10-31T03:40:35Z",
        "@version": 11,
        "@changeset": 34984634,
        "@user": "etajin",
        "@uid": 2480327
      },
      "geometry": {
        "type": "Point",
        "coordinates": [
          118.1158919,
          5.8391337
        ]
      }
    },
    {
      "type": "Feature",
      "id": "node/976683837",
      "properties": {
        "@id": "node/976683837",
        "is_in:continent": "Asia",
        "is_in:country": "Indonesia",
        "is_in:country_code": "ID",
        "name": "Bitung",
        "name:ja": "ビツン",
        "place": "city",
        "@timestamp": "2015-10-31T03:40:47Z",
        "@version": 3,
        "@changeset": 34984634,
        "@user": "etajin",
        "@uid": 2480327
      },
      "geometry": {
        "type": "Point",
        "coordinates": [
          125.1940836,
          1.44344
        ]
      }
    },
    {
      "type": "Feature",
      "id": "node/1013912389",
      "properties": {
        "@id": "node/1013912389",
        "alt_name": "Baukau",
        "is_in:continent": "Asia",
        "is_in:country": "East Timor",
        "name": "Baucau",
        "name:he": "באוקאו",
        "name:ja": "バウカウ",
        "name:zh": "包考",
        "place": "city",
        "wikipedia": "en:Baucau",
        "@timestamp": "2015-10-31T12:07:59Z",
        "@version": 9,
        "@changeset": 34990709,
        "@user": "etajin",
        "@uid": 2480327
      },
      "geometry": {
        "type": "Point",
        "coordinates": [
          126.4585621,
          -8.4650462
        ]
      }
    },
    {
      "type": "Feature",
      "id": "node/1248767553",
      "properties": {
        "@id": "node/1248767553",
        "is_in:country": "Indonesia",
        "is_in:country_code": "ID",
        "name": "Timika",
        "name:ja": "ティミカ",
        "place": "city",
        "wikipedia": "en:Timika",
        "wikipedia:en": "Timika",
        "@timestamp": "2015-11-03T22:38:57Z",
        "@version": 6,
        "@changeset": 35068117,
        "@user": "etajin",
        "@uid": 2480327
      },
      "geometry": {
        "type": "Point",
        "coordinates": [
          136.889884,
          -4.5481052
        ]
      }
    },
    {
      "type": "Feature",
      "id": "node/1256313302",
      "properties": {
        "@id": "node/1256313302",
        "is_in:continent": "Asia",
        "is_in:country": "Indonesia",
        "is_in:country_code": "ID",
        "name": "Pare-Pare",
        "name:en": "Pare-Pare",
        "name:ja": "パレパレ",
        "name:ru": "Паре-Паре",
        "name:uk": "Паре-Паре",
        "place": "city",
        "population": "116000",
        "@timestamp": "2015-10-31T12:08:06Z",
        "@version": 5,
        "@changeset": 34990709,
        "@user": "etajin",
        "@uid": 2480327
      },
      "geometry": {
        "type": "Point",
        "coordinates": [
          119.6236101,
          -4.0057055
        ]
      }
    },
    {
      "type": "Feature",
      "id": "node/1270969104",
      "properties": {
        "@id": "node/1270969104",
        "is_in:continent": "Asia",
        "is_in:country": "Indonesia",
        "is_in:country_code": "ID",
        "name": "Pinrang",
        "name:ja": "ピンラン",
        "place": "city",
        "@timestamp": "2015-10-31T12:08:09Z",
        "@version": 4,
        "@changeset": 34990709,
        "@user": "etajin",
        "@uid": 2480327
      },
      "geometry": {
        "type": "Point",
        "coordinates": [
          119.6528692,
          -3.7932568
        ]
      }
    },
    {
      "type": "Feature",
      "id": "node/1271814646",
      "properties": {
        "@id": "node/1271814646",
        "is_in:county": "Kolaka",
        "is_in:region": "Kolaka",
        "is_in:state": "Sulawesi Tenggara",
        "name": "Lamokato",
        "place": "city",
        "@timestamp": "2014-11-23T03:31:48Z",
        "@version": 2,
        "@changeset": 26965012,
        "@user": "asrun",
        "@uid": 2479811
      },
      "geometry": {
        "type": "Point",
        "coordinates": [
          121.5837218,
          -4.0275393
        ]
      }
    },
    {
      "type": "Feature",
      "id": "node/1271815738",
      "properties": {
        "@id": "node/1271815738",
        "is_in:county": "Kolaka",
        "is_in:region": "Kolaka",
        "is_in:state": "Sulawesi Tenggara",
        "name": "Tahoa",
        "place": "city",
        "@timestamp": "2014-11-23T03:31:48Z",
        "@version": 2,
        "@changeset": 26965012,
        "@user": "asrun",
        "@uid": 2479811
      },
      "geometry": {
        "type": "Point",
        "coordinates": [
          121.6283249,
          -4.0365386
        ]
      }
    },
    {
      "type": "Feature",
      "id": "node/1271846889",
      "properties": {
        "@id": "node/1271846889",
        "is_in:county": "Umbu Ratu Nggay",
        "is_in:region": "Sumba Barat",
        "is_in:state": "Nusa Tenggara Timur",
        "name": "Soru",
        "place": "city",
        "@timestamp": "2012-11-23T03:32:04Z",
        "@version": 6,
        "@changeset": 13994056,
        "@user": "Yoke Soepadi",
        "@uid": 680063
      },
      "geometry": {
        "type": "Point",
        "coordinates": [
          119.8146584,
          -9.5662126
        ]
      }
    },
    {
      "type": "Feature",
      "id": "node/1271846920",
      "properties": {
        "@id": "node/1271846920",
        "is_in:county": "Wewewa Barat",
        "is_in:region": "Sumba Barat",
        "is_in:state": "Nusa Tenggara Timur",
        "name": "Marokota",
        "place": "city",
        "@timestamp": "2011-09-30T21:11:26Z",
        "@version": 3,
        "@changeset": 9438900,
        "@user": "jalan sumba",
        "@uid": 498419
      },
      "geometry": {
        "type": "Point",
        "coordinates": [
          119.2091735,
          -9.5026427
        ]
      }
    },
    {
      "type": "Feature",
      "id": "node/1271846933",
      "properties": {
        "@id": "node/1271846933",
        "is_in:county": "Mamboro",
        "is_in:region": "Sumba Barat",
        "is_in:state": "Nusa Tenggara Timur",
        "name": "Wee Luri",
        "place": "city",
        "@timestamp": "2013-04-08T07:58:22Z",
        "@version": 4,
        "@changeset": 15651050,
        "@user": "ujal",
        "@uid": 686060
      },
      "geometry": {
        "type": "Point",
        "coordinates": [
          119.4614392,
          -9.478193
        ]
      }
    },
    {
      "type": "Feature",
      "id": "node/1271846961",
      "properties": {
        "@id": "node/1271846961",
        "is_in:county": "Lamboya",
        "is_in:region": "Sumba Barat",
        "is_in:state": "Nusa Tenggara Timur",
        "name": "Wee Tana",
        "place": "city",
        "@timestamp": "2013-04-11T12:08:44Z",
        "@version": 2,
        "@changeset": 15689064,
        "@user": "Bahtera sumba",
        "@uid": 1247006
      },
      "geometry": {
        "type": "Point",
        "coordinates": [
          119.1884692,
          -9.7072337
        ]
      }
    },
    {
      "type": "Feature",
      "id": "node/1271847010",
      "properties": {
        "@id": "node/1271847010",
        "is_in:county": "Wewewa Selatan",
        "is_in:region": "Sumba Barat",
        "is_in:state": "Nusa Tenggara Timur",
        "name": "Tena Teke",
        "place": "city",
        "@timestamp": "2011-09-30T21:35:56Z",
        "@version": 3,
        "@changeset": 9439088,
        "@user": "jalan sumba",
        "@uid": 498419
      },
      "geometry": {
        "type": "Point",
        "coordinates": [
          119.239447,
          -9.5818249
        ]
      }
    },
    {
      "type": "Feature",
      "id": "node/1271847095",
      "properties": {
        "@id": "node/1271847095",
        "is_in:county": "Lewa",
        "is_in:region": "Sumba Timur",
        "is_in:state": "Nusa Tenggara Timur",
        "name": "Laihawu",
        "place": "city",
        "@timestamp": "2011-10-01T21:40:54Z",
        "@version": 3,
        "@changeset": 9446388,
        "@user": "jalan sumba",
        "@uid": 498419
      },
      "geometry": {
        "type": "Point",
        "coordinates": [
          119.7662149,
          -9.7926963
        ]
      }
    },
    {
      "type": "Feature",
      "id": "node/1271847239",
      "properties": {
        "@id": "node/1271847239",
        "is_in:county": "Rindi",
        "is_in:region": "Sumba Timur",
        "is_in:state": "Nusa Tenggara Timur",
        "name": "Tatung",
        "place": "city",
        "@timestamp": "2011-09-30T18:12:58Z",
        "@version": 4,
        "@changeset": 9437469,
        "@user": "jalan sumba",
        "@uid": 498419
      },
      "geometry": {
        "type": "Point",
        "coordinates": [
          120.7207086,
          -9.9802886
        ]
      }
    },
    {
      "type": "Feature",
      "id": "node/1271847373",
      "properties": {
        "@id": "node/1271847373",
        "is_in:county": "Lewa",
        "is_in:region": "Sumba Timur",
        "is_in:state": "Nusa Tenggara Timur",
        "name": "Mondu Lambi",
        "place": "city",
        "@timestamp": "2011-09-30T20:25:15Z",
        "@version": 3,
        "@changeset": 9438509,
        "@user": "jalan sumba",
        "@uid": 498419
      },
      "geometry": {
        "type": "Point",
        "coordinates": [
          119.8027826,
          -9.8895133
        ]
      }
    },
    {
      "type": "Feature",
      "id": "node/1271847401",
      "properties": {
        "@id": "node/1271847401",
        "is_in:county": "Wewewa Timur",
        "is_in:region": "Sumba Barat",
        "is_in:state": "Nusa Tenggara Timur",
        "name": "Dikira",
        "place": "city",
        "@timestamp": "2011-09-30T21:35:56Z",
        "@version": 3,
        "@changeset": 9439088,
        "@user": "jalan sumba",
        "@uid": 498419
      },
      "geometry": {
        "type": "Point",
        "coordinates": [
          119.2810236,
          -9.6294054
        ]
      }
    },
    {
      "type": "Feature",
      "id": "node/1271864187",
      "properties": {
        "@id": "node/1271864187",
        "is_in:state": "Sulawesi Tenggara",
        "name": "Kendari",
        "name:en": "Kendari",
        "name:ja": "ケンダリ",
        "name:ru": "Кендари",
        "name:uk": "Кендарі",
        "name:zh": "肯達里",
        "note": "kabupaten or kota in indonesia",
        "place": "city",
        "wikipedia": "en:Kendari",
        "@timestamp": "2014-12-14T11:29:35Z",
        "@version": 4,
        "@changeset": 27455456,
        "@user": "andygol",
        "@uid": 94578
      },
      "geometry": {
        "type": "Point",
        "coordinates": [
          122.5180066,
          -3.9918068
        ]
      }
    },
    {
      "type": "Feature",
      "id": "node/1279966686",
      "properties": {
        "@id": "node/1279966686",
        "is_in:continent": "Asia",
        "is_in:country": "Indonesia",
        "is_in:country_code": "ID",
        "name": "Palopo",
        "name:en": "Palopo",
        "name:ja": "パロポ",
        "name:ru": "Палопо",
        "name:uk": "Палопо",
        "place": "city",
        "@timestamp": "2015-10-31T12:08:06Z",
        "@version": 6,
        "@changeset": 34990709,
        "@user": "etajin",
        "@uid": 2480327
      },
      "geometry": {
        "type": "Point",
        "coordinates": [
          120.1920679,
          -2.9996306
        ]
      }
    },
    {
      "type": "Feature",
      "id": "node/1308332424",
      "properties": {
        "@id": "node/1308332424",
        "is_in:country": "Indonesia",
        "is_in:county": "Bunguran Timur",
        "is_in:region": "Natuna",
        "is_in:state": "Kepulauan Riau",
        "name": "Ranai",
        "name:ja": "ラナイ",
        "place": "city",
        "@timestamp": "2015-10-31T12:08:23Z",
        "@version": 3,
        "@changeset": 34990709,
        "@user": "etajin",
        "@uid": 2480327
      },
      "geometry": {
        "type": "Point",
        "coordinates": [
          108.380066,
          3.93829
        ]
      }
    },
    {
      "type": "Feature",
      "id": "node/1308373796",
      "properties": {
        "@id": "node/1308373796",
        "is_in:country": "Indonesia",
        "is_in:county": "Sidikalang",
        "is_in:region": "D A I R I",
        "is_in:state": "Sumatera Utara",
        "name": "Kota Sidikalang",
        "name:ja": "シディカラン",
        "place": "city",
        "@timestamp": "2015-10-31T12:07:39Z",
        "@version": 4,
        "@changeset": 34990709,
        "@user": "etajin",
        "@uid": 2480327
      },
      "geometry": {
        "type": "Point",
        "coordinates": [
          98.2985156,
          2.7584791
        ]
      }
    },
    {
      "type": "Feature",
      "id": "node/1308378250",
      "properties": {
        "@id": "node/1308378250",
        "is_in:country": "Indonesia",
        "is_in:county": "Sungai Liat",
        "is_in:region": "Bangka",
        "is_in:state": "Kepulauan Bangka Belitung",
        "name": "Sungailiat",
        "name:ja": "スンガイリアト",
        "place": "city",
        "@timestamp": "2015-10-31T12:07:42Z",
        "@version": 4,
        "@changeset": 34990709,
        "@user": "etajin",
        "@uid": 2480327
      },
      "geometry": {
        "type": "Point",
        "coordinates": [
          106.1191993,
          -1.8477275
        ]
      }
    },
    {
      "type": "Feature",
      "id": "node/1308402757",
      "properties": {
        "@id": "node/1308402757",
        "is_in:country": "Indonesia",
        "is_in:county": "Penanggalan",
        "is_in:region": "Kota Subulussalam",
        "is_in:state": "Nanggroe Aceh Darussalam",
        "name": "Subulussalam",
        "name:en": "Subulussalam",
        "name:ja": "スブルサラム",
        "name:ru": "Субулуссалам",
        "name:uk": "Субулуссалам",
        "place": "city",
        "@timestamp": "2015-10-31T12:07:41Z",
        "@version": 5,
        "@changeset": 34990709,
        "@user": "etajin",
        "@uid": 2480327
      },
      "geometry": {
        "type": "Point",
        "coordinates": [
          98.0052459,
          2.6403146
        ]
      }
    },
    {
      "type": "Feature",
      "id": "node/1308636940",
      "properties": {
        "@id": "node/1308636940",
        "is_in:country": "Indonesia",
        "is_in:county": "Temanggung",
        "is_in:region": "Temanggung",
        "is_in:state": "Jawa Tengah",
        "name": "Temanggung",
        "place": "city",
        "population:census:2010": "708546",
        "source": "Google",
        "@timestamp": "2014-11-24T20:53:12Z",
        "@version": 6,
        "@changeset": 27007922,
        "@user": "emacsen_dwg",
        "@uid": 1782960
      },
      "geometry": {
        "type": "Point",
        "coordinates": [
          110.1754504,
          -7.3162377
        ]
      }
    },
    {
      "type": "Feature",
      "id": "node/1308642693",
      "properties": {
        "@id": "node/1308642693",
        "alt_name": "Banjar Patroman",
        "is_in:country": "Indonesia",
        "is_in:county": "Banjar",
        "is_in:region": "Kota Banjar",
        "is_in:state": "Jawa Barat",
        "name": "Banjar",
        "name:ja": "バンジャール",
        "place": "city",
        "wikipedia": "en:Banjar, West Java",
        "@timestamp": "2015-10-31T12:08:02Z",
        "@version": 6,
        "@changeset": 34990709,
        "@user": "etajin",
        "@uid": 2480327
      },
      "geometry": {
        "type": "Point",
        "coordinates": [
          108.5416736,
          -7.3693391
        ]
      }
    },
    {
      "type": "Feature",
      "id": "node/1308651254",
      "properties": {
        "@id": "node/1308651254",
        "is_in:country": "Indonesia",
        "is_in:county": "Cilacap Selatan",
        "is_in:region": "Cilacap",
        "is_in:state": "Jawa Tengah",
        "name": "Cilacap",
        "name:ja": "チラチャプ",
        "name:ru": "Чилачап",
        "place": "city",
        "@timestamp": "2015-10-31T12:07:52Z",
        "@version": 6,
        "@changeset": 34990709,
        "@user": "etajin",
        "@uid": 2480327
      },
      "geometry": {
        "type": "Point",
        "coordinates": [
          109.009662,
          -7.7267967
        ]
      }
    },
    {
      "type": "Feature",
      "id": "node/1308660374",
      "properties": {
        "@id": "node/1308660374",
        "is_in:country": "Indonesia",
        "is_in:county": "Biau",
        "is_in:region": "Buol",
        "is_in:state": "Sulawesi Tengah",
        "name": "Buol",
        "name:ja": "ブオル",
        "place": "city",
        "@timestamp": "2015-10-31T12:08:12Z",
        "@version": 5,
        "@changeset": 34990709,
        "@user": "etajin",
        "@uid": 2480327
      },
      "geometry": {
        "type": "Point",
        "coordinates": [
          121.4361959,
          1.1586619
        ]
      }
    },
    {
      "type": "Feature",
      "id": "node/1308672564",
      "properties": {
        "@id": "node/1308672564",
        "is_in:country": "Indonesia",
        "is_in:county": "Luwuk",
        "is_in:region": "Banggai",
        "is_in:state": "Sulawesi Tengah",
        "name": "Luwuk",
        "name:ja": "ルウィック",
        "place": "city",
        "wikipedia": "en:Luwuk",
        "@timestamp": "2015-10-31T12:08:25Z",
        "@version": 4,
        "@changeset": 34990709,
        "@user": "etajin",
        "@uid": 2480327
      },
      "geometry": {
        "type": "Point",
        "coordinates": [
          122.7886114,
          -0.9503956
        ]
      }
    },
    {
      "type": "Feature",
      "id": "node/1308676645",
      "properties": {
        "@id": "node/1308676645",
        "is_in:country": "Indonesia",
        "is_in:county": "Tinangkung",
        "is_in:region": "Banggai Kepulauan",
        "is_in:state": "Sulawesi Tengah",
        "name": "Salakan",
        "place": "city",
        "source": "GNS",
        "@timestamp": "2014-12-12T08:27:36Z",
        "@version": 2,
        "@changeset": 27416291,
        "@user": "katpatuka",
        "@uid": 17497
      },
      "geometry": {
        "type": "Point",
        "coordinates": [
          123.2908077,
          -1.3092724
        ]
      }
    },
    {
      "type": "Feature",
      "id": "node/1308686196",
      "properties": {
        "@id": "node/1308686196",
        "is_in:country": "Indonesia",
        "is_in:county": "Magelang Utara",
        "is_in:region": "Magelang",
        "is_in:state": "Jawa Tengah",
        "name": "Magelang",
        "name:ja": "マゲラン",
        "place": "city",
        "source": "Bing Maps",
        "@timestamp": "2015-10-31T12:08:17Z",
        "@version": 7,
        "@changeset": 34990709,
        "@user": "etajin",
        "@uid": 2480327
      },
      "geometry": {
        "type": "Point",
        "coordinates": [
          110.2182534,
          -7.4771114
        ]
      }
    },
    {
      "type": "Feature",
      "id": "node/1308686585",
      "properties": {
        "@id": "node/1308686585",
        "is_in:country": "Indonesia",
        "is_in:county": "Gianyar",
        "is_in:region": "Gianyar",
        "is_in:state": "Bali",
        "name": "Gianyar",
        "name:ja": "ギャニャール",
        "place": "city",
        "@timestamp": "2015-10-31T12:07:32Z",
        "@version": 3,
        "@changeset": 34990709,
        "@user": "etajin",
        "@uid": 2480327
      },
      "geometry": {
        "type": "Point",
        "coordinates": [
          115.3258603,
          -8.5426971
        ]
      }
    },
    {
      "type": "Feature",
      "id": "node/1308696523",
      "properties": {
        "@id": "node/1308696523",
        "is_in:country": "Indonesia",
        "is_in:county": "Cimahi Tengah",
        "is_in:region": "Kota Cimahi",
        "is_in:state": "Jawa Barat",
        "name": "Cimahi",
        "name:ja": "チマヒ",
        "name:nl": "Tjimahi",
        "name:zh": "芝馬墟",
        "place": "city",
        "wikipedia": "en:Cimahi",
        "@timestamp": "2015-02-02T10:39:05Z",
        "@version": 6,
        "@changeset": 28562802,
        "@user": "Bayu Adi Styawan",
        "@uid": 1705820
      },
      "geometry": {
        "type": "Point",
        "coordinates": [
          107.5423099,
          -6.8731527
        ]
      }
    },
    {
      "type": "Feature",
      "id": "node/1308712305",
      "properties": {
        "@id": "node/1308712305",
        "is_in:country": "Indonesia",
        "is_in:county": "Purwodadi",
        "is_in:region": "Grobogan",
        "is_in:state": "Jawa Tengah",
        "name": "Purwodadi",
        "place": "city",
        "@timestamp": "2014-01-15T11:04:22Z",
        "@version": 3,
        "@changeset": 20011498,
        "@user": "Bayu Adi Styawan",
        "@uid": 1705820
      },
      "geometry": {
        "type": "Point",
        "coordinates": [
          110.9172873,
          -7.0811262
        ]
      }
    },
    {
      "type": "Feature",
      "id": "node/1390375711",
      "properties": {
        "@id": "node/1390375711",
        "admin_level": "4",
        "alt_name": "Jogja",
        "capital": "yes",
        "is_in:country": "Indonesia",
        "name": "Yogyakarta",
        "name:en": "Yogyakarta",
        "name:ja": "ジョグジャカルタ",
        "name:jv": "Ngayogyakarta",
        "name:kn": "ಯೊಗ್ಯಾಕರ್ಟ",
        "name:ru": "Джокьякарта",
        "name:uk": "Джок'якарта",
        "name:zh": "日惹",
        "old_name": "Ngayogyakarta Hadiningrat",
        "place": "city",
        "population": "636660",
        "wikidata": "Q7568",
        "wikipedia": "en:Yogyakarta",
        "@timestamp": "2015-04-02T08:06:07Z",
        "@version": 16,
        "@changeset": 29922145,
        "@user": "wulankhairunisa",
        "@uid": 617233
      },
      "geometry": {
        "type": "Point",
        "coordinates": [
          110.3669652,
          -7.7829247
        ]
      }
    },
    {
      "type": "Feature",
      "id": "node/1396988300",
      "properties": {
        "@id": "node/1396988300",
        "name": "Kecamatan  Lambu",
        "place": "city",
        "@timestamp": "2015-06-27T06:58:53Z",
        "@version": 3,
        "@changeset": 32237052,
        "@user": "hasan",
        "@uid": 479296
      },
      "geometry": {
        "type": "Point",
        "coordinates": [
          119.0032151,
          -8.642879
        ]
      }
    },
    {
      "type": "Feature",
      "id": "node/1396988330",
      "properties": {
        "@id": "node/1396988330",
        "name": "Kecamatan Langgudu",
        "place": "city",
        "@timestamp": "2015-06-27T06:57:49Z",
        "@version": 4,
        "@changeset": 32237045,
        "@user": "hasan",
        "@uid": 479296
      },
      "geometry": {
        "type": "Point",
        "coordinates": [
          118.8173269,
          -8.6850636
        ]
      }
    },
    {
      "type": "Feature",
      "id": "node/1405153105",
      "properties": {
        "@id": "node/1405153105",
        "name": "Kecamatan Wawo",
        "place": "city",
        "@timestamp": "2015-07-30T06:10:35Z",
        "@version": 9,
        "@changeset": 32970166,
        "@user": "hasan",
        "@uid": 479296
      },
      "geometry": {
        "type": "Point",
        "coordinates": [
          118.8444464,
          -8.5210308
        ]
      }
    },
    {
      "type": "Feature",
      "id": "node/1406939048",
      "properties": {
        "@id": "node/1406939048",
        "name": "Kota Bima",
        "name:en": "Bima",
        "name:ja": "ビマ",
        "name:ru": "Бима",
        "name:uk": "Біма",
        "place": "city",
        "@timestamp": "2015-10-31T12:08:07Z",
        "@version": 7,
        "@changeset": 34990709,
        "@user": "etajin",
        "@uid": 2480327
      },
      "geometry": {
        "type": "Point",
        "coordinates": [
          118.7276222,
          -8.4535168
        ]
      }
    },
    {
      "type": "Feature",
      "id": "node/1426959112",
      "properties": {
        "@id": "node/1426959112",
        "name": "Mondu",
        "place": "city",
        "@timestamp": "2013-03-28T01:56:05Z",
        "@version": 5,
        "@changeset": 15522200,
        "@user": "kaledi",
        "@uid": 1044926
      },
      "geometry": {
        "type": "Point",
        "coordinates": [
          120.1021168,
          -9.4872338
        ]
      }
    },
    {
      "type": "Feature",
      "id": "node/1426959142",
      "properties": {
        "@id": "node/1426959142",
        "name": "Napu",
        "place": "city",
        "@timestamp": "2012-09-13T06:13:31Z",
        "@version": 5,
        "@changeset": 13091636,
        "@user": "Ika Kahali",
        "@uid": 483832
      },
      "geometry": {
        "type": "Point",
        "coordinates": [
          119.9285575,
          -9.3950486
        ]
      }
    },
    {
      "type": "Feature",
      "id": "node/1427075170",
      "properties": {
        "@id": "node/1427075170",
        "name": "Mamboro",
        "place": "city",
        "@timestamp": "2012-08-19T07:40:41Z",
        "@version": 3,
        "@changeset": 12780320,
        "@user": "ujal",
        "@uid": 686060
      },
      "geometry": {
        "type": "Point",
        "coordinates": [
          119.5402237,
          -9.3843621
        ]
      }
    },
    {
      "type": "Feature",
      "id": "node/1431248504",
      "properties": {
        "@id": "node/1431248504",
        "name": "Kaliuda",
        "place": "city",
        "@timestamp": "2011-09-30T18:12:57Z",
        "@version": 3,
        "@changeset": 9437469,
        "@user": "jalan sumba",
        "@uid": 498419
      },
      "geometry": {
        "type": "Point",
        "coordinates": [
          120.7151043,
          -10.1662884
        ]
      }
    },
    {
      "type": "Feature",
      "id": "node/1431638833",
      "properties": {
        "@id": "node/1431638833",
        "name": "Wahang",
        "place": "city",
        "@timestamp": "2011-09-30T18:12:57Z",
        "@version": 3,
        "@changeset": 9437469,
        "@user": "jalan sumba",
        "@uid": 498419
      },
      "geometry": {
        "type": "Point",
        "coordinates": [
          120.0255907,
          -10.0961123
        ]
      }
    },
    {
      "type": "Feature",
      "id": "node/1431661463",
      "properties": {
        "@id": "node/1431661463",
        "is_in:continent": "Asia",
        "is_in:country": "Indonesia",
        "is_in:country_code": "ID",
        "name": "Praihambuli",
        "place": "city",
        "@timestamp": "2013-02-20T12:22:30Z",
        "@version": 6,
        "@changeset": 15099602,
        "@user": "kaledi",
        "@uid": 1044926
      },
      "geometry": {
        "type": "Point",
        "coordinates": [
          119.9627262,
          -9.7384806
        ]
      }
    },
    {
      "type": "Feature",
      "id": "node/1431661502",
      "properties": {
        "@id": "node/1431661502",
        "name": "Tarimbang",
        "place": "city",
        "@timestamp": "2011-09-30T18:12:57Z",
        "@version": 3,
        "@changeset": 9437469,
        "@user": "jalan sumba",
        "@uid": 498419
      },
      "geometry": {
        "type": "Point",
        "coordinates": [
          119.9550014,
          -9.9701868
        ]
      }
    },
    {
      "type": "Feature",
      "id": "node/1431709973",
      "properties": {
        "@id": "node/1431709973",
        "name": "Wairasa",
        "place": "city",
        "@timestamp": "2013-03-29T02:52:11Z",
        "@version": 4,
        "@changeset": 15533368,
        "@user": "ujal",
        "@uid": 686060
      },
      "geometry": {
        "type": "Point",
        "coordinates": [
          119.5951992,
          -9.5970098
        ]
      }
    },
    {
      "type": "Feature",
      "id": "node/1431741000",
      "properties": {
        "@id": "node/1431741000",
        "name": "Melolo",
        "place": "city",
        "@timestamp": "2011-09-15T13:30:33Z",
        "@version": 2,
        "@changeset": 9307898,
        "@user": "jalan sumba",
        "@uid": 498419
      },
      "geometry": {
        "type": "Point",
        "coordinates": [
          120.663611,
          -9.8846182
        ]
      }
    },
    {
      "type": "Feature",
      "id": "node/1431741001",
      "properties": {
        "@id": "node/1431741001",
        "name": "Tawui",
        "place": "city",
        "@timestamp": "2011-09-30T18:12:57Z",
        "@version": 3,
        "@changeset": 9437469,
        "@user": "jalan sumba",
        "@uid": 498419
      },
      "geometry": {
        "type": "Point",
        "coordinates": [
          120.0787521,
          -10.1515385
        ]
      }
    },
    {
      "type": "Feature",
      "id": "node/1431741002",
      "properties": {
        "@id": "node/1431741002",
        "name": "Maderi",
        "place": "city",
        "@timestamp": "2013-03-30T14:46:23Z",
        "@version": 4,
        "@changeset": 15552055,
        "@user": "ujal",
        "@uid": 686060
      },
      "geometry": {
        "type": "Point",
        "coordinates": [
          119.5831667,
          -9.5072187
        ]
      }
    },
    {
      "type": "Feature",
      "id": "node/1431741004",
      "properties": {
        "@id": "node/1431741004",
        "name": "Lalindi",
        "place": "city",
        "@timestamp": "2011-09-30T18:12:58Z",
        "@version": 3,
        "@changeset": 9437469,
        "@user": "jalan sumba",
        "@uid": 498419
      },
      "geometry": {
        "type": "Point",
        "coordinates": [
          120.1978851,
          -10.209145
        ]
      }
    },
    {
      "type": "Feature",
      "id": "node/1431741014",
      "properties": {
        "@id": "node/1431741014",
        "name": "Malata",
        "place": "city",
        "@timestamp": "2011-09-30T20:56:41Z",
        "@version": 3,
        "@changeset": 9438770,
        "@user": "jalan sumba",
        "@uid": 498419
      },
      "geometry": {
        "type": "Point",
        "coordinates": [
          119.3825193,
          -9.440748
        ]
      }
    },
    {
      "type": "Feature",
      "id": "node/1431741020",
      "properties": {
        "@id": "node/1431741020",
        "name": "Ngonggi",
        "place": "city",
        "@timestamp": "2011-09-30T18:12:59Z",
        "@version": 3,
        "@changeset": 9437469,
        "@user": "jalan sumba",
        "@uid": 498419
      },
      "geometry": {
        "type": "Point",
        "coordinates": [
          120.2432037,
          -10.1895469
        ]
      }
    },
    {
      "type": "Feature",
      "id": "node/1431786752",
      "properties": {
        "@id": "node/1431786752",
        "name": "Taramanu",
        "place": "city",
        "@timestamp": "2011-09-30T21:52:25Z",
        "@version": 3,
        "@changeset": 9439189,
        "@user": "jalan sumba",
        "@uid": 498419
      },
      "geometry": {
        "type": "Point",
        "coordinates": [
          119.4558037,
          -9.6995165
        ]
      }
    },
    {
      "type": "Feature",
      "id": "node/1431807151",
      "properties": {
        "@id": "node/1431807151",
        "name": "Rua",
        "place": "city",
        "@timestamp": "2011-09-30T21:49:17Z",
        "@version": 3,
        "@changeset": 9439169,
        "@user": "jalan sumba",
        "@uid": 498419
      },
      "geometry": {
        "type": "Point",
        "coordinates": [
          119.4122039,
          -9.7631769
        ]
      }
    },
    {
      "type": "Feature",
      "id": "node/1431910756",
      "properties": {
        "@id": "node/1431910756",
        "name": "Lailunggi",
        "place": "city",
        "@timestamp": "2011-09-30T18:12:56Z",
        "@version": 3,
        "@changeset": 9437469,
        "@user": "jalan sumba",
        "@uid": 498419
      },
      "geometry": {
        "type": "Point",
        "coordinates": [
          120.1139427,
          -10.1645408
        ]
      }
    },
    {
      "type": "Feature",
      "id": "node/1432744791",
      "properties": {
        "@id": "node/1432744791",
        "is_in:country": "Indonesia",
        "is_in:state": "Kepulauan Bangka Belitung",
        "name": "Pangkalpinang",
        "name:en": "Pangkalpinang",
        "name:ja": "パンカルピナン",
        "name:ru": "Панкалпинанг",
        "name:uk": "Панкалпінанг",
        "place": "city",
        "wikipedia": "en:Pangkal Pinang",
        "@timestamp": "2015-10-31T12:08:07Z",
        "@version": 6,
        "@changeset": 34990709,
        "@user": "etajin",
        "@uid": 2480327
      },
      "geometry": {
        "type": "Point",
        "coordinates": [
          106.1134604,
          -2.1206733
        ]
      }
    },
    {
      "type": "Feature",
      "id": "node/1432935359",
      "properties": {
        "@id": "node/1432935359",
        "name": "Bondokodi",
        "name:ja": "ボンドコディ",
        "place": "city",
        "@timestamp": "2015-10-31T12:08:15Z",
        "@version": 5,
        "@changeset": 34990709,
        "@user": "etajin",
        "@uid": 2480327
      },
      "geometry": {
        "type": "Point",
        "coordinates": [
          118.992705,
          -9.5932838
        ]
      }
    },
    {
      "type": "Feature",
      "id": "node/1432935369",
      "properties": {
        "@id": "node/1432935369",
        "name": "Kodi",
        "name:ja": "コディ",
        "place": "city",
        "@timestamp": "2015-10-31T12:07:35Z",
        "@version": 5,
        "@changeset": 34990709,
        "@user": "etajin",
        "@uid": 2480327
      },
      "geometry": {
        "type": "Point",
        "coordinates": [
          118.9876007,
          -9.6049148
        ]
      }
    },
    {
      "type": "Feature",
      "id": "node/1433092213",
      "properties": {
        "@id": "node/1433092213",
        "name": "Lokory",
        "place": "city",
        "@timestamp": "2011-09-30T20:56:41Z",
        "@version": 3,
        "@changeset": 9438770,
        "@user": "jalan sumba",
        "@uid": 498419
      },
      "geometry": {
        "type": "Point",
        "coordinates": [
          119.3896265,
          -9.4138344
        ]
      }
    },
    {
      "type": "Feature",
      "id": "node/1433262822",
      "properties": {
        "@id": "node/1433262822",
        "name": "Kallala",
        "place": "city",
        "@timestamp": "2011-09-30T18:12:57Z",
        "@version": 3,
        "@changeset": 9437469,
        "@user": "jalan sumba",
        "@uid": 498419
      },
      "geometry": {
        "type": "Point",
        "coordinates": [
          120.5936444,
          -10.246795
        ]
      }
    },
    {
      "type": "Feature",
      "id": "node/1433301115",
      "properties": {
        "@id": "node/1433301115",
        "name": "Maloba",
        "place": "city",
        "@timestamp": "2012-08-24T01:49:12Z",
        "@version": 4,
        "@changeset": 12840068,
        "@user": "Yoke Soepadi",
        "@uid": 680063
      },
      "geometry": {
        "type": "Point",
        "coordinates": [
          119.6373757,
          -9.7571019
        ]
      }
    },
    {
      "type": "Feature",
      "id": "node/1433303790",
      "properties": {
        "@id": "node/1433303790",
        "name": "Waikabubak",
        "place": "city",
        "wikipedia": "en:Waikabubak",
        "@timestamp": "2014-03-25T23:45:57Z",
        "@version": 2,
        "@changeset": 21316013,
        "@user": "wvdp",
        "@uid": 436419
      },
      "geometry": {
        "type": "Point",
        "coordinates": [
          119.4100521,
          -9.6355595
        ]
      }
    },
    {
      "type": "Feature",
      "id": "node/1433303792",
      "properties": {
        "@id": "node/1433303792",
        "name": "Wee Tobula",
        "place": "city",
        "@timestamp": "2013-10-19T05:06:43Z",
        "@version": 2,
        "@changeset": 18428970,
        "@user": "3lt0n",
        "@uid": 564786
      },
      "geometry": {
        "type": "Point",
        "coordinates": [
          119.2248338,
          -9.4459667
        ]
      }
    },
    {
      "type": "Feature",
      "id": "node/1433303796",
      "properties": {
        "@id": "node/1433303796",
        "name": "Waikelo",
        "place": "city",
        "@timestamp": "2011-09-15T10:09:39Z",
        "@version": 1,
        "@changeset": 9305938,
        "@user": "jalan sumba",
        "@uid": 498419
      },
      "geometry": {
        "type": "Point",
        "coordinates": [
          119.2234605,
          -9.3941382
        ]
      }
    },
    {
      "type": "Feature",
      "id": "node/1433501720",
      "properties": {
        "@id": "node/1433501720",
        "name": "Manoekangga",
        "place": "city",
        "@timestamp": "2011-09-30T18:12:59Z",
        "@version": 2,
        "@changeset": 9437469,
        "@user": "jalan sumba",
        "@uid": 498419
      },
      "geometry": {
        "type": "Point",
        "coordinates": [
          120.3846539,
          -10.2423802
        ]
      }
    },
    {
      "type": "Feature",
      "id": "node/1433501722",
      "properties": {
        "@id": "node/1433501722",
        "name": "Katundu",
        "place": "city",
        "@timestamp": "2011-09-30T18:12:56Z",
        "@version": 2,
        "@changeset": 9437469,
        "@user": "jalan sumba",
        "@uid": 498419
      },
      "geometry": {
        "type": "Point",
        "coordinates": [
          120.1443237,
          -10.2134926
        ]
      }
    },
    {
      "type": "Feature",
      "id": "node/1433501723",
      "properties": {
        "@id": "node/1433501723",
        "name": "Lenang",
        "place": "city",
        "@timestamp": "2013-03-27T11:59:28Z",
        "@version": 3,
        "@changeset": 15514758,
        "@user": "ujal",
        "@uid": 686060
      },
      "geometry": {
        "type": "Point",
        "coordinates": [
          119.7526336,
          -9.3992076
        ]
      }
    },
    {
      "type": "Feature",
      "id": "node/1433505940",
      "properties": {
        "@id": "node/1433505940",
        "name": "Manggudu",
        "place": "city",
        "@timestamp": "2011-10-01T14:01:28Z",
        "@version": 2,
        "@changeset": 9442686,
        "@user": "jalan sumba",
        "@uid": 498419
      },
      "geometry": {
        "type": "Point",
        "coordinates": [
          120.1161755,
          -10.3296184
        ]
      }
    },
    {
      "type": "Feature",
      "id": "node/1433540598",
      "properties": {
        "@id": "node/1433540598",
        "name": "Waingapu",
        "place": "city",
        "wikipedia": "en:Waingapu",
        "@timestamp": "2014-03-25T23:45:57Z",
        "@version": 2,
        "@changeset": 21316013,
        "@user": "wvdp",
        "@uid": 436419
      },
      "geometry": {
        "type": "Point",
        "coordinates": [
          120.2636908,
          -9.652179
        ]
      }
    },
    {
      "type": "Feature",
      "id": "node/1434057133",
      "properties": {
        "@id": "node/1434057133",
        "name": "Kananggar",
        "place": "city",
        "@timestamp": "2012-10-06T07:08:15Z",
        "@version": 3,
        "@changeset": 13381314,
        "@user": "Theowulf",
        "@uid": 77568
      },
      "geometry": {
        "type": "Point",
        "coordinates": [
          120.3620025,
          -10.0439726
        ]
      }
    },
    {
      "type": "Feature",
      "id": "node/1434057134",
      "properties": {
        "@id": "node/1434057134",
        "name": "Praingkareha",
        "place": "city",
        "@timestamp": "2012-10-12T03:40:58Z",
        "@version": 4,
        "@changeset": 13462099,
        "@user": "ujal",
        "@uid": 686060
      },
      "geometry": {
        "type": "Point",
        "coordinates": [
          120.0453639,
          -10.0135575
        ]
      }
    },
    {
      "type": "Feature",
      "id": "node/1434058879",
      "properties": {
        "@id": "node/1434058879",
        "name": "Dameka",
        "name:ja": "ダメカ",
        "place": "city",
        "@timestamp": "2015-10-31T12:07:51Z",
        "@version": 5,
        "@changeset": 34990709,
        "@user": "etajin",
        "@uid": 2480327
      },
      "geometry": {
        "type": "Point",
        "coordinates": [
          119.5434209,
          -9.6358817
        ]
      }
    },
    {
      "type": "Feature",
      "id": "node/1434058880",
      "properties": {
        "@id": "node/1434058880",
        "name": "Waimanu",
        "place": "city",
        "@timestamp": "2012-09-22T02:59:22Z",
        "@version": 4,
        "@changeset": 13203011,
        "@user": "Yoke Soepadi",
        "@uid": 680063
      },
      "geometry": {
        "type": "Point",
        "coordinates": [
          119.523042,
          -9.6514161
        ]
      }
    },
    {
      "type": "Feature",
      "id": "node/1434060727",
      "properties": {
        "@id": "node/1434060727",
        "name": "Katewela",
        "place": "city",
        "@timestamp": "2011-09-30T20:56:41Z",
        "@version": 2,
        "@changeset": 9438770,
        "@user": "jalan sumba",
        "@uid": 498419
      },
      "geometry": {
        "type": "Point",
        "coordinates": [
          119.3466263,
          -9.3767469
        ]
      }
    },
    {
      "type": "Feature",
      "id": "node/1434060728",
      "properties": {
        "@id": "node/1434060728",
        "name": "Tambolaka",
        "place": "city",
        "wikipedia": "en:Tambolaka",
        "@timestamp": "2014-03-25T23:45:57Z",
        "@version": 3,
        "@changeset": 21316013,
        "@user": "wvdp",
        "@uid": 436419
      },
      "geometry": {
        "type": "Point",
        "coordinates": [
          119.2419987,
          -9.4241666
        ]
      }
    },
    {
      "type": "Feature",
      "id": "node/1434060729",
      "properties": {
        "@id": "node/1434060729",
        "name": "Gaura",
        "name:ja": "ガウラ",
        "place": "city",
        "@timestamp": "2015-10-31T12:07:32Z",
        "@version": 3,
        "@changeset": 34990709,
        "@user": "etajin",
        "@uid": 2480327
      },
      "geometry": {
        "type": "Point",
        "coordinates": [
          119.2537575,
          -9.7111696
        ]
      }
    },
    {
      "type": "Feature",
      "id": "node/1434064393",
      "properties": {
        "@id": "node/1434064393",
        "name": "Mburukulu",
        "place": "city",
        "@timestamp": "2011-09-30T22:14:04Z",
        "@version": 2,
        "@changeset": 9439288,
        "@user": "jalan sumba",
        "@uid": 498419
      },
      "geometry": {
        "type": "Point",
        "coordinates": [
          120.7501298,
          -10.0727248
        ]
      }
    },
    {
      "type": "Feature",
      "id": "node/1434064394",
      "properties": {
        "@id": "node/1434064394",
        "name": "Kabaru",
        "name:ja": "カバール",
        "place": "city",
        "@timestamp": "2015-10-31T12:07:31Z",
        "@version": 4,
        "@changeset": 34990709,
        "@user": "etajin",
        "@uid": 2480327
      },
      "geometry": {
        "type": "Point",
        "coordinates": [
          120.7494037,
          -10.0396495
        ]
      }
    },
    {
      "type": "Feature",
      "id": "node/1434064395",
      "properties": {
        "@id": "node/1434064395",
        "name": "Hanggaroru",
        "place": "city",
        "@timestamp": "2011-10-01T14:01:28Z",
        "@version": 2,
        "@changeset": 9442686,
        "@user": "jalan sumba",
        "@uid": 498419
      },
      "geometry": {
        "type": "Point",
        "coordinates": [
          120.6581193,
          -10.006633
        ]
      }
    },
    {
      "type": "Feature",
      "id": "node/1434064396",
      "properties": {
        "@id": "node/1434064396",
        "name": "Heikatapu",
        "place": "city",
        "@timestamp": "2011-09-30T18:12:57Z",
        "@version": 2,
        "@changeset": 9437469,
        "@user": "jalan sumba",
        "@uid": 498419
      },
      "geometry": {
        "type": "Point",
        "coordinates": [
          120.7451516,
          -10.0117044
        ]
      }
    },
    {
      "type": "Feature",
      "id": "node/1434083342",
      "properties": {
        "@id": "node/1434083342",
        "name": "Lingulango",
        "place": "city",
        "@timestamp": "2011-09-30T21:07:16Z",
        "@version": 2,
        "@changeset": 9438859,
        "@user": "jalan sumba",
        "@uid": 498419
      },
      "geometry": {
        "type": "Point",
        "coordinates": [
          119.3715172,
          -9.4984161
        ]
      }
    },
    {
      "type": "Feature",
      "id": "node/1434083345",
      "properties": {
        "@id": "node/1434083345",
        "name": "Lahara",
        "place": "city",
        "@timestamp": "2011-09-30T18:12:57Z",
        "@version": 2,
        "@changeset": 9437469,
        "@user": "jalan sumba",
        "@uid": 498419
      },
      "geometry": {
        "type": "Point",
        "coordinates": [
          119.9367981,
          -9.8245154
        ]
      }
    },
    {
      "type": "Feature",
      "id": "node/1434083348",
      "properties": {
        "@id": "node/1434083348",
        "name": "Konda",
        "place": "city",
        "@timestamp": "2012-08-24T01:49:12Z",
        "@version": 3,
        "@changeset": 12840068,
        "@user": "Yoke Soepadi",
        "@uid": 680063
      },
      "geometry": {
        "type": "Point",
        "coordinates": [
          119.6654352,
          -9.7688687
        ]
      }
    },
    {
      "type": "Feature",
      "id": "node/1434090589",
      "properties": {
        "@id": "node/1434090589",
        "name": "Waikelo Sawah",
        "place": "city",
        "@timestamp": "2012-03-08T06:35:18Z",
        "@version": 3,
        "@changeset": 10906412,
        "@user": "minggus bora",
        "@uid": 619549
      },
      "geometry": {
        "type": "Point",
        "coordinates": [
          119.3403663,
          -9.595238
        ]
      }
    },
    {
      "type": "Feature",
      "id": "node/1434090595",
      "properties": {
        "@id": "node/1434090595",
        "name": "Elopada",
        "place": "city",
        "@timestamp": "2011-09-30T21:35:56Z",
        "@version": 2,
        "@changeset": 9439088,
        "@user": "jalan sumba",
        "@uid": 498419
      },
      "geometry": {
        "type": "Point",
        "coordinates": [
          119.3206626,
          -9.5702798
        ]
      }
    },
    {
      "type": "Feature",
      "id": "node/1434095957",
      "properties": {
        "@id": "node/1434095957",
        "name": "Kabunduk",
        "place": "city",
        "@timestamp": "2013-03-29T01:50:00Z",
        "@version": 3,
        "@changeset": 15533169,
        "@user": "ujal",
        "@uid": 686060
      },
      "geometry": {
        "type": "Point",
        "coordinates": [
          119.5657663,
          -9.6042207
        ]
      }
    },
    {
      "type": "Feature",
      "id": "node/1434103540",
      "properties": {
        "@id": "node/1434103540",
        "name": "Panenggoede",
        "place": "city",
        "@timestamp": "2011-09-30T21:29:33Z",
        "@version": 2,
        "@changeset": 9439045,
        "@user": "jalan sumba",
        "@uid": 498419
      },
      "geometry": {
        "type": "Point",
        "coordinates": [
          119.0587502,
          -9.6715741
        ]
      }
    },
    {
      "type": "Feature",
      "id": "node/1434109727",
      "properties": {
        "@id": "node/1434109727",
        "name": "Mareda Kalada",
        "place": "city",
        "@timestamp": "2011-09-30T21:35:56Z",
        "@version": 2,
        "@changeset": 9439088,
        "@user": "jalan sumba",
        "@uid": 498419
      },
      "geometry": {
        "type": "Point",
        "coordinates": [
          119.3179589,
          -9.6084485
        ]
      }
    },
    {
      "type": "Feature",
      "id": "node/1434109728",
      "properties": {
        "@id": "node/1434109728",
        "name": "Lambo",
        "place": "city",
        "@timestamp": "2011-09-30T21:11:25Z",
        "@version": 2,
        "@changeset": 9438900,
        "@user": "jalan sumba",
        "@uid": 498419
      },
      "geometry": {
        "type": "Point",
        "coordinates": [
          119.2698937,
          -9.4935062
        ]
      }
    },
    {
      "type": "Feature",
      "id": "node/1434116274",
      "properties": {
        "@id": "node/1434116274",
        "name": "Kangeli",
        "place": "city",
        "@timestamp": "2011-09-30T18:14:44Z",
        "@version": 2,
        "@changeset": 9437469,
        "@user": "jalan sumba",
        "@uid": 498419
      },
      "geometry": {
        "type": "Point",
        "coordinates": [
          119.8068505,
          -9.7419629
        ]
      }
    },
    {
      "type": "Feature",
      "id": "node/1434116275",
      "properties": {
        "@id": "node/1434116275",
        "name": "Wanga",
        "place": "city",
        "@timestamp": "2011-09-30T18:12:58Z",
        "@version": 2,
        "@changeset": 9437469,
        "@user": "jalan sumba",
        "@uid": 498419
      },
      "geometry": {
        "type": "Point",
        "coordinates": [
          120.6148606,
          -9.7988045
        ]
      }
    },
    {
      "type": "Feature",
      "id": "node/1434176053",
      "properties": {
        "@id": "node/1434176053",
        "name": "Tanarara",
        "place": "city",
        "@timestamp": "2011-09-30T18:14:44Z",
        "@version": 2,
        "@changeset": 9437469,
        "@user": "jalan sumba",
        "@uid": 498419
      },
      "geometry": {
        "type": "Point",
        "coordinates": [
          119.8348313,
          -9.7575276
        ]
      }
    },
    {
      "type": "Feature",
      "id": "node/1435561687",
      "properties": {
        "@id": "node/1435561687",
        "name": "Lewa",
        "place": "city",
        "@timestamp": "2013-04-15T16:07:52Z",
        "@version": 3,
        "@changeset": 15738926,
        "@user": "kaledi",
        "@uid": 1044926
      },
      "geometry": {
        "type": "Point",
        "coordinates": [
          119.878546,
          -9.7013448
        ]
      }
    },
    {
      "type": "Feature",
      "id": "node/1435601129",
      "properties": {
        "@id": "node/1435601129",
        "name": "Rambangaru",
        "place": "city",
        "@timestamp": "2012-08-03T12:51:26Z",
        "@version": 3,
        "@changeset": 12597894,
        "@user": "john thomas",
        "@uid": 483825
      },
      "geometry": {
        "type": "Point",
        "coordinates": [
          120.0520491,
          -9.4508334
        ]
      }
    },
    {
      "type": "Feature",
      "id": "node/1436455413",
      "properties": {
        "@id": "node/1436455413",
        "name": "Waihura",
        "place": "city",
        "@timestamp": "2011-09-30T21:52:25Z",
        "@version": 2,
        "@changeset": 9439189,
        "@user": "jalan sumba",
        "@uid": 498419
      },
      "geometry": {
        "type": "Point",
        "coordinates": [
          119.4479589,
          -9.7450915
        ]
      }
    },
    {
      "type": "Feature",
      "id": "node/1436478913",
      "properties": {
        "@id": "node/1436478913",
        "name": "Kadenga",
        "place": "city",
        "@timestamp": "2011-09-30T21:39:28Z",
        "@version": 2,
        "@changeset": 9439111,
        "@user": "jalan sumba",
        "@uid": 498419
      },
      "geometry": {
        "type": "Point",
        "coordinates": [
          119.3360357,
          -9.7274958
        ]
      }
    },
    {
      "type": "Feature",
      "id": "node/1436478914",
      "properties": {
        "@id": "node/1436478914",
        "name": "Kabukarudi",
        "place": "city",
        "@timestamp": "2011-09-30T21:49:17Z",
        "@version": 2,
        "@changeset": 9439169,
        "@user": "jalan sumba",
        "@uid": 498419
      },
      "geometry": {
        "type": "Point",
        "coordinates": [
          119.35818,
          -9.7197128
        ]
      }
    },
    {
      "type": "Feature",
      "id": "node/1562561227",
      "properties": {
        "@id": "node/1562561227",
        "admin_level": "5",
        "name": "Pasuruan",
        "name:ja": "パスルアン",
        "name:nl": "Pasoeroean",
        "name:ru": "Пасуруан",
        "name:zh": "岩望",
        "place": "city",
        "source": "landsat",
        "@timestamp": "2015-09-06T07:28:51Z",
        "@version": 8,
        "@changeset": 33826815,
        "@user": "Ezagren",
        "@uid": 1801604
      },
      "geometry": {
        "type": "Point",
        "coordinates": [
          112.906694,
          -7.6419894
        ]
      }
    },
    {
      "type": "Feature",
      "id": "node/1563693848",
      "properties": {
        "@id": "node/1563693848",
        "admin_level": "6",
        "name": "Batu",
        "name:ja": "バトゥ",
        "name:nl": "Batoe",
        "name:zh": "巴圖",
        "place": "city",
        "wikipedia": "id:Kota Batu",
        "@timestamp": "2015-07-05T19:30:50Z",
        "@version": 7,
        "@changeset": 32433596,
        "@user": "Ezagren",
        "@uid": 1801604
      },
      "geometry": {
        "type": "Point",
        "coordinates": [
          112.5274014,
          -7.8707774
        ]
      }
    },
    {
      "type": "Feature",
      "id": "node/1610976888",
      "properties": {
        "@id": "node/1610976888",
        "is_in:continent": "Asia",
        "is_in:country": "Indonesia",
        "is_in:country_code": "ID",
        "name": "Ampana",
        "name:ja": "アンパナ",
        "place": "city",
        "@timestamp": "2015-10-31T12:07:28Z",
        "@version": 4,
        "@changeset": 34990709,
        "@user": "etajin",
        "@uid": 2480327
      },
      "geometry": {
        "type": "Point",
        "coordinates": [
          121.5879362,
          -0.8732752
        ]
      }
    },
    {
      "type": "Feature",
      "id": "node/1648071679",
      "properties": {
        "@id": "node/1648071679",
        "name": "Kecamatan Parado",
        "place": "city",
        "@timestamp": "2015-06-27T06:50:07Z",
        "@version": 5,
        "@changeset": 32236975,
        "@user": "hasan",
        "@uid": 479296
      },
      "geometry": {
        "type": "Point",
        "coordinates": [
          118.5815597,
          -8.7434712
        ]
      }
    },
    {
      "type": "Feature",
      "id": "node/1685300522",
      "properties": {
        "@id": "node/1685300522",
        "name": "Kecamatan WERA",
        "place": "city",
        "@timestamp": "2015-06-27T06:45:48Z",
        "@version": 5,
        "@changeset": 32236922,
        "@user": "hasan",
        "@uid": 479296
      },
      "geometry": {
        "type": "Point",
        "coordinates": [
          118.8966181,
          -8.3472187
        ]
      }
    },
    {
      "type": "Feature",
      "id": "node/1696013934",
      "properties": {
        "@id": "node/1696013934",
        "name": "Kecamatan Soromandi",
        "place": "city",
        "@timestamp": "2015-06-27T06:49:00Z",
        "@version": 5,
        "@changeset": 32236963,
        "@user": "hasan",
        "@uid": 479296
      },
      "geometry": {
        "type": "Point",
        "coordinates": [
          118.6307635,
          -8.3747685
        ]
      }
    },
    {
      "type": "Feature",
      "id": "node/1699083598",
      "properties": {
        "@id": "node/1699083598",
        "admin_level": "2",
        "capital": "yes",
        "is_in:continent": "Asia",
        "is_in:country": "Brunei",
        "is_in:country_code": "BN",
        "name": "Bandar Seri Begawan",
        "name:am": "ባንዳር ሰሪ ቤጋዋን",
        "name:ar": "بندر سري بكاوان",
        "name:az": "Bandar Seri Begavan",
        "name:be": "Бандар-Серы-Бегаван",
        "name:be-tarask": "Бандар-Сэры-Бэгаван",
        "name:bg": "Бандар Сери Бегаван",
        "name:bn": "বন্দর সেরি বেগাওয়ান",
        "name:bo": "སི་རི་པེ་ཀ་མཚོ་ཁུགས་གྲོང་ཁྱེར​།",
        "name:ckb": "بەندەر سێری بێگاوان",
        "name:de": "Bandar Seri Begawan",
        "name:el": "Μπαντάρ Σερί Μπεγκαβάν",
        "name:en": "Bandar Seri Begawan",
        "name:eo": "Bandar-Seri-Begavano",
        "name:eu": "Bandar Seri Begawan",
        "name:fa": "بندر سری بگاوان",
        "name:fy": "Bandar Sery Begawan",
        "name:he": "בנדר סרי בגוואן",
        "name:ht": "Banda Seri",
        "name:hu": "Bandar Seri Begawan",
        "name:hy": "Բանդար Սերի Բեգավան",
        "name:is": "Bandar Seri Begawan",
        "name:ja": "バンダルスリブガワン",
        "name:ka": "ბანდარ-სერი-ბეგავანი",
        "name:ko": "반다르스리브가완",
        "name:ky": "Бандар-Сери-Бегаван",
        "name:lt": "Bandar Seri Begavanas",
        "name:lv": "Bandarseribegavana",
        "name:mk": "Бандар Сери Бегаван",
        "name:mn": "Бандар Сери Бегаван",
        "name:mr": "बंदर स्री बगवान",
        "name:my": "ဘန်ဒါဆရီဘဂါဝမ်မြို့",
        "name:os": "Бандар-Сери-Бегаван",
        "name:pnb": "بندر سری بیگوان",
        "name:ru": "Бандар-Сери-Бегаван",
        "name:sr": "Бандар Сери Бегаван",
        "name:sv": "Bandar Seri Begawan",
        "name:ta": "பண்டர் செரி பெகாவான்",
        "name:tg": "Бандар-Сери-Бегаван",
        "name:th": "บันดาร์เสรีเบกาวัน",
        "name:tr": "Bandar Seri Begavan",
        "name:tt": "Бандар-Сери-Бегаван",
        "name:ug": "باندار سەرى بەگاۋان",
        "name:uk": "Бандар-Сері-Бегаван",
        "name:ur": "بندر سری بگاوان",
        "name:zh": "斯里巴加灣市",
        "place": "city",
        "wikipedia": "en:Bandar Seri Begawan",
        "@timestamp": "2015-07-23T15:37:14Z",
        "@version": 11,
        "@changeset": 32829390,
        "@user": "Komяpa",
        "@uid": 29320
      },
      "geometry": {
        "type": "Point",
        "coordinates": [
          114.9417574,
          4.8895453
        ]
      }
    },
    {
      "type": "Feature",
      "id": "node/1785382787",
      "properties": {
        "@id": "node/1785382787",
        "_P_CODE_": "15835.00000000000",
        "name": "Pante Macassar",
        "name:en": "Pante Macassar",
        "name:ja": "パンテ・マカッサル",
        "name:ru": "Панте-Макассар",
        "name:uk": "Панте-Макассар",
        "name:zh": "潘特馬卡薩",
        "place": "city",
        "source": "UN-OCHA",
        "wikipedia": "en:Pante Macassar",
        "@timestamp": "2015-10-31T12:08:07Z",
        "@version": 7,
        "@changeset": 34990709,
        "@user": "etajin",
        "@uid": 2480327
      },
      "geometry": {
        "type": "Point",
        "coordinates": [
          124.36839,
          -9.20282
        ]
      }
    },
    {
      "type": "Feature",
      "id": "node/1785440264",
      "properties": {
        "@id": "node/1785440264",
        "_P_CODE_": "16509.00000000000",
        "is_in:continent": "Asia",
        "is_in:country": "East Timor",
        "name": "Maliana",
        "name:ja": "マリアナ",
        "place": "city",
        "population": "22000",
        "source": "UN-OCHA",
        "wikipedia": "pt:Maliana",
        "@timestamp": "2015-10-31T12:08:18Z",
        "@version": 6,
        "@changeset": 34990709,
        "@user": "etajin",
        "@uid": 2480327
      },
      "geometry": {
        "type": "Point",
        "coordinates": [
          125.21742,
          -8.99169
        ]
      }
    },
    {
      "type": "Feature",
      "id": "node/1785440273",
      "properties": {
        "@id": "node/1785440273",
        "_P_CODE_": "  16742.00000000000",
        "is_in:continent": "Asia",
        "is_in:country": "East Timor",
        "name": "Same",
        "place": "city",
        "population": "25000",
        "source": "UN-OCHA",
        "wikipedia": "pt:Same",
        "@timestamp": "2012-09-24T16:38:35Z",
        "@version": 3,
        "@changeset": 13235767,
        "@user": "AmbiWeb",
        "@uid": 888456
      },
      "geometry": {
        "type": "Point",
        "coordinates": [
          125.64777,
          -9.00362
        ]
      }
    },
    {
      "type": "Feature",
      "id": "node/1785440275",
      "properties": {
        "@id": "node/1785440275",
        "_P_CODE_": "15960.00000000000",
        "is_in:continent": "Asia",
        "is_in:country": "East Timor",
        "name": "Suai",
        "name:zh": "蘇艾",
        "place": "city",
        "population": "23000",
        "source": "UN-OCHA",
        "wikipedia": "pt:Suai",
        "@timestamp": "2015-02-28T04:33:27Z",
        "@version": 4,
        "@changeset": 29148707,
        "@user": "roaven",
        "@uid": 2385962
      },
      "geometry": {
        "type": "Point",
        "coordinates": [
          125.25458,
          -9.3097
        ]
      }
    },
    {
      "type": "Feature",
      "id": "node/1811389215",
      "properties": {
        "@id": "node/1811389215",
        "name": "Jepara",
        "name:ja": "ジェパラ",
        "place": "city",
        "@timestamp": "2015-10-31T12:07:40Z",
        "@version": 3,
        "@changeset": 34990709,
        "@user": "etajin",
        "@uid": 2480327
      },
      "geometry": {
        "type": "Point",
        "coordinates": [
          110.6673981,
          -6.5897452
        ]
      }
    },
    {
      "type": "Feature",
      "id": "node/1811755606",
      "properties": {
        "@id": "node/1811755606",
        "is_in:country": "Indonesia",
        "name": "Tarakan",
        "name:en": "Tarakan",
        "name:ja": "タラカン",
        "name:ru": "Таракан",
        "name:uk": "Таракан",
        "name:zh": "塔拉卡恩",
        "place": "city",
        "population": "168765",
        "wikipedia": "en:Tarakan, North Kalimantan",
        "@timestamp": "2015-10-31T03:40:40Z",
        "@version": 4,
        "@changeset": 34984634,
        "@user": "etajin",
        "@uid": 2480327
      },
      "geometry": {
        "type": "Point",
        "coordinates": [
          117.6330159,
          3.3000169
        ]
      }
    },
    {
      "type": "Feature",
      "id": "node/1827675410",
      "properties": {
        "@id": "node/1827675410",
        "is_in:continent": "Asia",
        "is_in:country": "Indonesia",
        "is_in:country_code": "ID",
        "name": "Sumbawa Besar",
        "place": "city",
        "wikipedia": "en:Sumbawa Besar",
        "@timestamp": "2014-03-25T23:45:56Z",
        "@version": 4,
        "@changeset": 21316013,
        "@user": "wvdp",
        "@uid": 436419
      },
      "geometry": {
        "type": "Point",
        "coordinates": [
          117.426941,
          -8.4965763
        ]
      }
    },
    {
      "type": "Feature",
      "id": "node/1846660196",
      "properties": {
        "@id": "node/1846660196",
        "name": "Pahola",
        "place": "city",
        "@timestamp": "2012-08-01T10:20:03Z",
        "@version": 1,
        "@changeset": 12572329,
        "@user": "Benhard Umbu",
        "@uid": 483470
      },
      "geometry": {
        "type": "Point",
        "coordinates": [
          119.4342596,
          -9.7460183
        ]
      }
    },
    {
      "type": "Feature",
      "id": "node/1889910974",
      "properties": {
        "@id": "node/1889910974",
        "admin_level": "2",
        "capital": "yes",
        "is_in:continent": "Asia",
        "is_in:country": "Malaysia",
        "is_in:country_code": "MY",
        "name": "Kuala Lumpur",
        "name:am": "ኩዋላ ሉምፑር",
        "name:ar": "كوالالمبور",
        "name:arz": "كوالا لامبور",
        "name:be": "Куала-Лумпур",
        "name:be-tarask": "Куала Лумпур",
        "name:bg": "Куала Лумпур",
        "name:bn": "কুয়ালালামপুর",
        "name:bo": "ཁལ་ལུང་ཕུ།",
        "name:ckb": "کوالالومپور",
        "name:de": "Kuala Lumpur",
        "name:el": "Κουάλα Λουμπούρ",
        "name:en": "Kuala Lumpur",
        "name:eo": "Kuala-Lumpuro",
        "name:es": "Kuala Lumpur",
        "name:fa": "کوالالامپور",
        "name:fr": "Kuala Lumpur",
        "name:he": "קואלה לומפור",
        "name:hi": "कुआ लालम्पुर",
        "name:ht": "Kouala Loumpou",
        "name:hu": "Kuala Lumpur",
        "name:hy": "Կուալա Լումպուր",
        "name:is": "Kúala Lúmpúr",
        "name:ja": "クアラルンプール",
        "name:ka": "კუალა-ლუმპური",
        "name:kk": "Куала Лумпур",
        "name:kn": "ಕ್ವಾಲ ಲುಂಪುರ್",
        "name:ko": "쿠알라룸푸르",
        "name:lt": "Kvala Lumpūras",
        "name:lv": "Kualalumpūra",
        "name:mk": "Куала Лумпур",
        "name:ml": "കോലാലമ്പൂർ",
        "name:mn": "Куала Лумпур",
        "name:mr": "क्वालालंपूर",
        "name:my": "ကွာလာလမ်ပူမြို့",
        "name:nl": "Kuala Lumpur",
        "name:os": "Куалæ-Лумпур",
        "name:pnb": "کوالا لمپور",
        "name:ps": "کوالالامپور",
        "name:pt": "Kuala Lumpur",
        "name:ru": "Куала-Лумпур",
        "name:sah": "Куала Лумпур",
        "name:sr": "Куала Лумпур",
        "name:ta": "கோலாலம்பூர்",
        "name:th": "กัวลาลัมเปอร์",
        "name:ug": "كۇئالالۇمپۇر",
        "name:uk": "Куала-Лумпур",
        "name:ur": "کوالالمپور",
        "name:zh": "吉隆坡",
        "name:zh-yue": "吉隆坡",
        "place": "city",
        "population": "1475337",
        "source": "wikipeadia",
        "wikipedia": "de:Kuala Lumpur",
        "wikipedia_1": "https://en.wikipedia.org/wiki/Kuala_Lumpur",
        "@timestamp": "2015-07-26T14:57:56Z",
        "@version": 14,
        "@changeset": 32890807,
        "@user": "AkuAnakTimur",
        "@uid": 1407839
      },
      "geometry": {
        "type": "Point",
        "coordinates": [
          101.7009528,
          3.1570976
        ]
      }
    },
    {
      "type": "Feature",
      "id": "node/1905428349",
      "properties": {
        "@id": "node/1905428349",
        "name": "Maradamundi",
        "place": "city",
        "@timestamp": "2012-12-27T09:11:27Z",
        "@version": 5,
        "@changeset": 14422643,
        "@user": "Ika Kahali",
        "@uid": 483832
      },
      "geometry": {
        "type": "Point",
        "coordinates": [
          120.2607832,
          -9.7796236
        ]
      }
    },
    {
      "type": "Feature",
      "id": "node/1906209350",
      "properties": {
        "@id": "node/1906209350",
        "name": "Wendewa Selatan",
        "place": "city",
        "@timestamp": "2012-09-09T01:25:47Z",
        "@version": 1,
        "@changeset": 13039824,
        "@user": "Yoke Soepadi",
        "@uid": 680063
      },
      "geometry": {
        "type": "Point",
        "coordinates": [
          119.5448195,
          -9.3996647
        ]
      }
    },
    {
      "type": "Feature",
      "id": "node/2017932095",
      "properties": {
        "@id": "node/2017932095",
        "name": "Banjarnegara",
        "name:ja": "バンジャーネガラ",
        "place": "city",
        "population": "916875",
        "source": "Bing",
        "@timestamp": "2015-10-31T12:08:02Z",
        "@version": 6,
        "@changeset": 34990709,
        "@user": "etajin",
        "@uid": 2480327
      },
      "geometry": {
        "type": "Point",
        "coordinates": [
          109.6951175,
          -7.3961529
        ]
      }
    },
    {
      "type": "Feature",
      "id": "node/2017932097",
      "properties": {
        "@id": "node/2017932097",
        "name": "Purbalingga",
        "place": "city",
        "population:census:2010": "848952",
        "source": "Bing Maps",
        "@timestamp": "2014-09-20T07:11:17Z",
        "@version": 4,
        "@changeset": 25554061,
        "@user": "aswinter",
        "@uid": 831842
      },
      "geometry": {
        "type": "Point",
        "coordinates": [
          109.360163,
          -7.3888648
        ]
      }
    },
    {
      "type": "Feature",
      "id": "node/2019413961",
      "properties": {
        "@id": "node/2019413961",
        "name": "Kadahang",
        "name:ja": "カダハン",
        "place": "city",
        "@timestamp": "2015-10-31T12:07:31Z",
        "@version": 2,
        "@changeset": 34990709,
        "@user": "etajin",
        "@uid": 2480327
      },
      "geometry": {
        "type": "Point",
        "coordinates": [
          120.0257582,
          -9.4015709
        ]
      }
    },
    {
      "type": "Feature",
      "id": "node/2019419867",
      "properties": {
        "@id": "node/2019419867",
        "name": "Wunga",
        "place": "city",
        "@timestamp": "2013-01-11T04:13:06Z",
        "@version": 3,
        "@changeset": 14605923,
        "@user": "Sara Koku Yowa",
        "@uid": 1192735
      },
      "geometry": {
        "type": "Point",
        "coordinates": [
          119.957927,
          -9.3844945
        ]
      }
    },
    {
      "type": "Feature",
      "id": "node/2036439111",
      "properties": {
        "@id": "node/2036439111",
        "alt_name": "Port Numbay",
        "name": "Jayapura",
        "name:en": "Jayapura",
        "name:hi": "जयपुर",
        "name:ja": "ジャヤプラ",
        "name:kn": "ಜಯಪುರ",
        "name:ru": "Джаяпура",
        "name:uk": "Джаяпура",
        "name:zh": "查雅普拉",
        "old_name": "Hollandia, Kota Baru, Sukarnapura",
        "place": "city",
        "population": "233859",
        "source": "population = britannica online",
        "wikipedia": "en:Jayapura",
        "@timestamp": "2014-12-11T15:47:29Z",
        "@version": 7,
        "@changeset": 27401242,
        "@user": "andygol",
        "@uid": 94578
      },
      "geometry": {
        "type": "Point",
        "coordinates": [
          140.7037389,
          -2.5387539
        ]
      }
    },
    {
      "type": "Feature",
      "id": "node/2036443318",
      "properties": {
        "@id": "node/2036443318",
        "name": "Manokwari",
        "name:en": "Manokwari",
        "name:ja": "マノクワリ",
        "name:ru": "Маноквари",
        "name:uk": "Манокварі",
        "name:zh": "曼諾瓦里",
        "place": "city",
        "wikipedia": "en:Manokwari",
        "@timestamp": "2014-12-14T11:31:36Z",
        "@version": 3,
        "@changeset": 27455491,
        "@user": "andygol",
        "@uid": 94578
      },
      "geometry": {
        "type": "Point",
        "coordinates": [
          134.0787709,
          -0.8571545
        ]
      }
    },
    {
      "type": "Feature",
      "id": "node/2037763907",
      "properties": {
        "@id": "node/2037763907",
        "name": "Laimeta",
        "place": "city",
        "@timestamp": "2012-11-28T06:59:14Z",
        "@version": 1,
        "@changeset": 14069339,
        "@user": "Ika Kahali",
        "@uid": 483832
      },
      "geometry": {
        "type": "Point",
        "coordinates": [
          120.2806137,
          -9.9436777
        ]
      }
    },
    {
      "type": "Feature",
      "id": "node/2037763908",
      "properties": {
        "@id": "node/2037763908",
        "name": "Lukuwinggir",
        "place": "city",
        "@timestamp": "2012-11-28T06:59:14Z",
        "@version": 1,
        "@changeset": 14069339,
        "@user": "Ika Kahali",
        "@uid": 483832
      },
      "geometry": {
        "type": "Point",
        "coordinates": [
          120.2494265,
          -9.8245841
        ]
      }
    },
    {
      "type": "Feature",
      "id": "node/2037763909",
      "properties": {
        "@id": "node/2037763909",
        "name": "Mahu Bokul",
        "place": "city",
        "@timestamp": "2012-11-28T06:59:15Z",
        "@version": 1,
        "@changeset": 14069339,
        "@user": "Ika Kahali",
        "@uid": 483832
      },
      "geometry": {
        "type": "Point",
        "coordinates": [
          120.2457399,
          -9.8444758
        ]
      }
    },
    {
      "type": "Feature",
      "id": "node/2037763911",
      "properties": {
        "@id": "node/2037763911",
        "name": "Waimbidi",
        "place": "city",
        "@timestamp": "2012-11-28T06:59:15Z",
        "@version": 1,
        "@changeset": 14069339,
        "@user": "Ika Kahali",
        "@uid": 483832
      },
      "geometry": {
        "type": "Point",
        "coordinates": [
          120.2647383,
          -9.8137311
        ]
      }
    },
    {
      "type": "Feature",
      "id": "node/2047475566",
      "properties": {
        "@id": "node/2047475566",
        "name": "Kabupaten Sumba Timur",
        "name:ja": "東スンバ",
        "place": "city",
        "@timestamp": "2015-10-31T12:08:29Z",
        "@version": 4,
        "@changeset": 34990709,
        "@user": "etajin",
        "@uid": 2480327
      },
      "geometry": {
        "type": "Point",
        "coordinates": [
          119.8303911,
          -9.679967
        ]
      }
    },
    {
      "type": "Feature",
      "id": "node/2065923003",
      "properties": {
        "@id": "node/2065923003",
        "name": "Sibu",
        "name:ja": "シブ",
        "name:ru": "Сибу",
        "name:uk": "Сібу",
        "place": "city",
        "wikidata": "Q1048700",
        "@timestamp": "2015-10-31T12:07:40Z",
        "@version": 4,
        "@changeset": 34990709,
        "@user": "etajin",
        "@uid": 2480327
      },
      "geometry": {
        "type": "Point",
        "coordinates": [
          111.8263262,
          2.2907009
        ]
      }
    },
    {
      "type": "Feature",
      "id": "node/2072800010",
      "properties": {
        "@id": "node/2072800010",
        "name": "Kecamatan Donggo",
        "place": "city",
        "@timestamp": "2015-06-27T06:48:17Z",
        "@version": 4,
        "@changeset": 32236955,
        "@user": "hasan",
        "@uid": 479296
      },
      "geometry": {
        "type": "Point",
        "coordinates": [
          118.5899856,
          -8.416439
        ]
      }
    },
    {
      "type": "Feature",
      "id": "node/2081450443",
      "properties": {
        "@id": "node/2081450443",
        "capital": "yes",
        "is_in:continent": "Asia",
        "is_in:country": "Indonesia",
        "is_in:county": "Ilir Timur I",
        "is_in:region": "Palembang",
        "is_in:state": "Sumatera Selatan",
        "name": "Palembang",
        "name:en": "Palembang",
        "name:ja": "パレンバン",
        "name:kn": "ಪಲೆಂಬಂಗ್",
        "name:ru": "Палембанг",
        "name:uk": "Палембанг",
        "place": "city",
        "wikipedia": "en:Palembang",
        "wikipedia_1": "id:Palembang",
        "@timestamp": "2015-10-31T12:08:06Z",
        "@version": 11,
        "@changeset": 34990709,
        "@user": "etajin",
        "@uid": 2480327
      },
      "geometry": {
        "type": "Point",
        "coordinates": [
          104.756857,
          -2.9888297
        ]
      }
    },
    {
      "type": "Feature",
      "id": "node/2084171255",
      "properties": {
        "@id": "node/2084171255",
        "name": "Tanatuku",
        "place": "city",
        "@timestamp": "2012-12-27T08:39:20Z",
        "@version": 1,
        "@changeset": 14422409,
        "@user": "Ika Kahali",
        "@uid": 483832
      },
      "geometry": {
        "type": "Point",
        "coordinates": [
          120.0157579,
          -9.7219425
        ]
      }
    },
    {
      "type": "Feature",
      "id": "node/2088536248",
      "properties": {
        "@id": "node/2088536248",
        "name": "Wonosari",
        "place": "city",
        "@timestamp": "2015-01-14T14:32:27Z",
        "@version": 6,
        "@changeset": 28138204,
        "@user": "Bayu Adi Styawan",
        "@uid": 1705820
      },
      "geometry": {
        "type": "Point",
        "coordinates": [
          110.6008027,
          -7.9650912
        ]
      }
    },
    {
      "type": "Feature",
      "id": "node/2142261808",
      "properties": {
        "@id": "node/2142261808",
        "name": "Karawang",
        "name:ja": "カラワン",
        "place": "city",
        "source": "Google",
        "@timestamp": "2015-10-31T12:07:31Z",
        "@version": 2,
        "@changeset": 34990709,
        "@user": "etajin",
        "@uid": 2480327
      },
      "geometry": {
        "type": "Point",
        "coordinates": [
          107.3020962,
          -6.2949871
        ]
      }
    },
    {
      "type": "Feature",
      "id": "node/2142261809",
      "properties": {
        "@id": "node/2142261809",
        "name": "Cirebon",
        "name:en": "Cirebon",
        "name:ja": "チレボン",
        "name:nl": "Tjirebon",
        "name:ru": "Чиребон",
        "name:uk": "Чиребон",
        "name:zh": "井裡汶",
        "place": "city",
        "source": "Google",
        "wikipedia": "en:Cirebon",
        "@timestamp": "2014-12-14T12:37:10Z",
        "@version": 4,
        "@changeset": 27456971,
        "@user": "andygol",
        "@uid": 94578
      },
      "geometry": {
        "type": "Point",
        "coordinates": [
          108.5608483,
          -6.7137044
        ]
      }
    },
    {
      "type": "Feature",
      "id": "node/2145147122",
      "properties": {
        "@id": "node/2145147122",
        "is_in:country": "Indonesia",
        "is_in:county": "Tobelo",
        "is_in:region": "Halmahera Utara",
        "is_in:state": "Maluku Utara",
        "name": "Tobelo",
        "name:ja": "トベロ",
        "place": "city",
        "@timestamp": "2015-10-31T03:40:42Z",
        "@version": 2,
        "@changeset": 34984634,
        "@user": "etajin",
        "@uid": 2480327
      },
      "geometry": {
        "type": "Point",
        "coordinates": [
          127.9999457,
          1.726284
        ]
      }
    },
    {
      "type": "Feature",
      "id": "node/2146121076",
      "properties": {
        "@id": "node/2146121076",
        "name": "Pulupanjang",
        "place": "city",
        "@timestamp": "2013-02-09T05:02:29Z",
        "@version": 3,
        "@changeset": 14963354,
        "@user": "Yoke Soepadi",
        "@uid": 680063
      },
      "geometry": {
        "type": "Point",
        "coordinates": [
          120.0571737,
          -9.7784719
        ]
      }
    },
    {
      "type": "Feature",
      "id": "node/2169189762",
      "properties": {
        "@id": "node/2169189762",
        "name": "Desa Pabahan",
        "place": "city_block",
        "@timestamp": "2015-08-24T07:02:57Z",
        "@version": 3,
        "@changeset": 33538590,
        "@user": "TrailRunning",
        "@uid": 1806604
      },
      "geometry": {
        "type": "Point",
        "coordinates": [
          114.9958839,
          4.784687
        ]
      }
    },
    {
      "type": "Feature",
      "id": "node/2201695796",
      "properties": {
        "@id": "node/2201695796",
        "name": "Kelurahan Wailiang",
        "place": "city",
        "@timestamp": "2013-03-14T14:59:11Z",
        "@version": 1,
        "@changeset": 15363394,
        "@user": "Haris bahtera",
        "@uid": 791784
      },
      "geometry": {
        "type": "Point",
        "coordinates": [
          119.4081831,
          -9.6364788
        ]
      }
    },
    {
      "type": "Feature",
      "id": "node/2201722121",
      "properties": {
        "@id": "node/2201722121",
        "name": "Desa PARIRARA",
        "place": "city",
        "@timestamp": "2013-06-13T04:08:23Z",
        "@version": 3,
        "@changeset": 16532420,
        "@user": "EdyBili",
        "@uid": 1539936
      },
      "geometry": {
        "type": "Point",
        "coordinates": [
          119.4371618,
          -9.712815
        ]
      }
    },
    {
      "type": "Feature",
      "id": "node/2209566001",
      "properties": {
        "@id": "node/2209566001",
        "name": "Ana Wolu",
        "place": "city",
        "@timestamp": "2013-04-19T01:56:19Z",
        "@version": 2,
        "@changeset": 15780057,
        "@user": "Bahtera sumba",
        "@uid": 1247006
      },
      "geometry": {
        "type": "Point",
        "coordinates": [
          119.4497831,
          -9.6946391
        ]
      }
    },
    {
      "type": "Feature",
      "id": "node/2209594695",
      "properties": {
        "@id": "node/2209594695",
        "name": "Manola",
        "place": "city",
        "@timestamp": "2013-04-01T14:38:55Z",
        "@version": 4,
        "@changeset": 15569000,
        "@user": "Bahtera sumba",
        "@uid": 1247006
      },
      "geometry": {
        "type": "Point",
        "coordinates": [
          119.4983542,
          -9.5493479
        ]
      }
    },
    {
      "type": "Feature",
      "id": "node/2213143637",
      "properties": {
        "@id": "node/2213143637",
        "name": "Desa Praimadeta",
        "place": "city",
        "@timestamp": "2013-04-03T18:46:03Z",
        "@version": 2,
        "@changeset": 15598731,
        "@user": "ujal",
        "@uid": 686060
      },
      "geometry": {
        "type": "Point",
        "coordinates": [
          119.5993213,
          -9.5317742
        ]
      }
    },
    {
      "type": "Feature",
      "id": "node/2215632972",
      "properties": {
        "@id": "node/2215632972",
        "name": "Waimangoma",
        "place": "city",
        "@timestamp": "2013-03-23T04:30:32Z",
        "@version": 1,
        "@changeset": 15461704,
        "@user": "Bahtera sumba",
        "@uid": 1247006
      },
      "geometry": {
        "type": "Point",
        "coordinates": [
          119.3994337,
          -9.7812325
        ]
      }
    },
    {
      "type": "Feature",
      "id": "node/2230045251",
      "properties": {
        "@id": "node/2230045251",
        "name": "Praibakul",
        "place": "city",
        "@timestamp": "2013-03-28T01:56:02Z",
        "@version": 1,
        "@changeset": 15522200,
        "@user": "kaledi",
        "@uid": 1044926
      },
      "geometry": {
        "type": "Point",
        "coordinates": [
          120.046119,
          -9.4597449
        ]
      }
    },
    {
      "type": "Feature",
      "id": "node/2240458430",
      "properties": {
        "@id": "node/2240458430",
        "name": "Lainjanji",
        "place": "city",
        "@timestamp": "2013-04-01T01:58:17Z",
        "@version": 1,
        "@changeset": 15561721,
        "@user": "kaledi",
        "@uid": 1044926
      },
      "geometry": {
        "type": "Point",
        "coordinates": [
          120.5239659,
          -10.2315483
        ]
      }
    },
    {
      "type": "Feature",
      "id": "node/2246009109",
      "properties": {
        "@id": "node/2246009109",
        "name": "Patiala Bawa",
        "place": "city",
        "@timestamp": "2013-04-03T06:34:53Z",
        "@version": 2,
        "@changeset": 15590295,
        "@user": "Bahtera sumba",
        "@uid": 1247006
      },
      "geometry": {
        "type": "Point",
        "coordinates": [
          119.3269869,
          -9.7488966
        ]
      }
    },
    {
      "type": "Feature",
      "id": "node/2271451970",
      "properties": {
        "@id": "node/2271451970",
        "name": "Pantai Lai Liang",
        "place": "city",
        "@timestamp": "2013-04-18T09:29:29Z",
        "@version": 1,
        "@changeset": 15771282,
        "@user": "Bahtera sumba",
        "@uid": 1247006
      },
      "geometry": {
        "type": "Point",
        "coordinates": [
          119.5033469,
          -9.7533279
        ]
      }
    },
    {
      "type": "Feature",
      "id": "node/2280492275",
      "properties": {
        "@id": "node/2280492275",
        "name": "Bau",
        "name:ja": "バウ",
        "place": "city",
        "@timestamp": "2015-10-31T12:07:59Z",
        "@version": 4,
        "@changeset": 34990709,
        "@user": "etajin",
        "@uid": 2480327
      },
      "geometry": {
        "type": "Point",
        "coordinates": [
          110.1553336,
          1.417864
        ]
      }
    },
    {
      "type": "Feature",
      "id": "node/2290465824",
      "properties": {
        "@id": "node/2290465824",
        "name": "Belinyu",
        "name:ja": "ベリニュ",
        "place": "city",
        "@timestamp": "2015-10-31T12:08:15Z",
        "@version": 2,
        "@changeset": 34990709,
        "@user": "etajin",
        "@uid": 2480327
      },
      "geometry": {
        "type": "Point",
        "coordinates": [
          105.7695931,
          -1.6381847
        ]
      }
    },
    {
      "type": "Feature",
      "id": "node/2315476758",
      "properties": {
        "@id": "node/2315476758",
        "name": "Hupu Mada",
        "place": "city",
        "@timestamp": "2013-05-22T04:48:48Z",
        "@version": 1,
        "@changeset": 16233009,
        "@user": "Bahtera sumba",
        "@uid": 1247006
      },
      "geometry": {
        "type": "Point",
        "coordinates": [
          119.4621601,
          -9.6967046
        ]
      }
    },
    {
      "type": "Feature",
      "id": "node/2323815223",
      "properties": {
        "@id": "node/2323815223",
        "name": "Manu Mada",
        "place": "city",
        "@timestamp": "2013-05-29T02:07:27Z",
        "@version": 1,
        "@changeset": 16332234,
        "@user": "Bahtera sumba",
        "@uid": 1247006
      },
      "geometry": {
        "type": "Point",
        "coordinates": [
          119.3871307,
          -9.4539493
        ]
      }
    },
    {
      "type": "Feature",
      "id": "node/2334185078",
      "properties": {
        "@id": "node/2334185078",
        "name": "Kecamatan Ambalawi",
        "place": "city",
        "@timestamp": "2015-06-27T06:47:11Z",
        "@version": 2,
        "@changeset": 32236938,
        "@user": "hasan",
        "@uid": 479296
      },
      "geometry": {
        "type": "Point",
        "coordinates": [
          118.7717062,
          -8.3162623
        ]
      }
    },
    {
      "type": "Feature",
      "id": "node/2334187738",
      "properties": {
        "@id": "node/2334187738",
        "name": "Kecamatan Madapangga",
        "place": "city",
        "@timestamp": "2015-06-27T07:01:01Z",
        "@version": 2,
        "@changeset": 32237078,
        "@user": "hasan",
        "@uid": 479296
      },
      "geometry": {
        "type": "Point",
        "coordinates": [
          118.5532848,
          -8.5179
        ]
      }
    },
    {
      "type": "Feature",
      "id": "node/2334188558",
      "properties": {
        "@id": "node/2334188558",
        "name": "Kecamatan Bolo",
        "place": "city",
        "@timestamp": "2014-06-13T04:09:04Z",
        "@version": 3,
        "@changeset": 22900702,
        "@user": "hasan",
        "@uid": 479296
      },
      "geometry": {
        "type": "Point",
        "coordinates": [
          118.6181621,
          -8.5089079
        ]
      }
    },
    {
      "type": "Feature",
      "id": "node/2334192115",
      "properties": {
        "@id": "node/2334192115",
        "name": "Kecamatan  Sape",
        "place": "city",
        "@timestamp": "2015-06-27T06:59:46Z",
        "@version": 2,
        "@changeset": 32237060,
        "@user": "hasan",
        "@uid": 479296
      },
      "geometry": {
        "type": "Point",
        "coordinates": [
          118.9878521,
          -8.5638955
        ]
      }
    },
    {
      "type": "Feature",
      "id": "node/2334194995",
      "properties": {
        "@id": "node/2334194995",
        "name": "Kecamatan Monta",
        "place": "city",
        "@timestamp": "2015-06-27T06:57:03Z",
        "@version": 2,
        "@changeset": 32237039,
        "@user": "hasan",
        "@uid": 479296
      },
      "geometry": {
        "type": "Point",
        "coordinates": [
          118.702108,
          -8.6501964
        ]
      }
    },
    {
      "type": "Feature",
      "id": "node/2339328548",
      "properties": {
        "@id": "node/2339328548",
        "name": "Mamuju",
        "name:en": "Mamuju",
        "name:ja": "マムジュ",
        "name:ru": "Мамуджу",
        "name:uk": "Мамуджу",
        "place": "city",
        "@timestamp": "2015-10-31T12:08:18Z",
        "@version": 5,
        "@changeset": 34990709,
        "@user": "etajin",
        "@uid": 2480327
      },
      "geometry": {
        "type": "Point",
        "coordinates": [
          118.8885839,
          -2.6757443
        ]
      }
    },
    {
      "type": "Feature",
      "id": "node/2341521109",
      "properties": {
        "@id": "node/2341521109",
        "name": "Elu Loda",
        "place": "city",
        "@timestamp": "2013-06-12T04:31:10Z",
        "@version": 1,
        "@changeset": 16518907,
        "@user": "Bahtera sumba",
        "@uid": 1247006
      },
      "geometry": {
        "type": "Point",
        "coordinates": [
          119.4077883,
          -9.4614895
        ]
      }
    },
    {
      "type": "Feature",
      "id": "node/2370356376",
      "properties": {
        "@id": "node/2370356376",
        "name": "Subang",
        "place": "city",
        "@timestamp": "2014-01-15T11:23:18Z",
        "@version": 3,
        "@changeset": 20011759,
        "@user": "Bayu Adi Styawan",
        "@uid": 1705820
      },
      "geometry": {
        "type": "Point",
        "coordinates": [
          107.7587397,
          -6.5689807
        ]
      }
    },
    {
      "type": "Feature",
      "id": "node/2376296911",
      "properties": {
        "@id": "node/2376296911",
        "name": "Desa Rewa Rara",
        "place": "city",
        "@timestamp": "2013-07-06T17:24:12Z",
        "@version": 1,
        "@changeset": 16851307,
        "@user": "Bahtera sumba",
        "@uid": 1247006
      },
      "geometry": {
        "type": "Point",
        "coordinates": [
          119.4620061,
          -9.6825519
        ]
      }
    },
    {
      "type": "Feature",
      "id": "node/2388046455",
      "properties": {
        "@id": "node/2388046455",
        "name": "Lubuk Pakam",
        "name:ja": "ルブックパカム",
        "place": "city",
        "@timestamp": "2015-10-31T12:08:26Z",
        "@version": 2,
        "@changeset": 34990709,
        "@user": "etajin",
        "@uid": 2480327
      },
      "geometry": {
        "type": "Point",
        "coordinates": [
          98.8766933,
          3.5603701
        ]
      }
    },
    {
      "type": "Feature",
      "id": "node/2400196532",
      "properties": {
        "@id": "node/2400196532",
        "name": "Sumedang",
        "place": "city",
        "wikipedia": "en:Sumedang",
        "@timestamp": "2014-11-18T11:06:05Z",
        "@version": 4,
        "@changeset": 26861975,
        "@user": "Kampung Ciburuan",
        "@uid": 2427851
      },
      "geometry": {
        "type": "Point",
        "coordinates": [
          107.9206982,
          -6.8592431
        ]
      }
    },
    {
      "type": "Feature",
      "id": "node/2401281742",
      "properties": {
        "@id": "node/2401281742",
        "name": "Indramayu",
        "name:ja": "インドラマユ",
        "place": "city",
        "wikipedia": "en:Indramayu",
        "@timestamp": "2015-10-31T12:07:28Z",
        "@version": 4,
        "@changeset": 34990709,
        "@user": "etajin",
        "@uid": 2480327
      },
      "geometry": {
        "type": "Point",
        "coordinates": [
          108.3228887,
          -6.326449
        ]
      }
    },
    {
      "type": "Feature",
      "id": "node/2413854179",
      "properties": {
        "@id": "node/2413854179",
        "name": "Sukabumi",
        "name:ja": "スカブミ",
        "place": "city",
        "website": "http://www.sukabumikota.go.id/",
        "wikipedia": "en:Sukabumi",
        "@timestamp": "2015-11-09T22:17:31Z",
        "@version": 5,
        "@changeset": 35203704,
        "@user": "etajin",
        "@uid": 2480327
      },
      "geometry": {
        "type": "Point",
        "coordinates": [
          106.9265095,
          -6.9199289
        ]
      }
    },
    {
      "type": "Feature",
      "id": "node/2417847197",
      "properties": {
        "@id": "node/2417847197",
        "name": "Balikpapan",
        "name:en": "Balikpapan",
        "name:ja": "バリクパパン",
        "name:ru": "Баликпапан",
        "name:uk": "Балікпапан",
        "name:zh": "巴厘巴板",
        "place": "city",
        "wikipedia": "en:Balikpapan",
        "@timestamp": "2015-07-19T03:36:14Z",
        "@version": 4,
        "@changeset": 32726451,
        "@user": "Ezagren",
        "@uid": 1801604
      },
      "geometry": {
        "type": "Point",
        "coordinates": [
          116.8593379,
          -1.2398711
        ]
      }
    },
    {
      "type": "Feature",
      "id": "node/2489116238",
      "properties": {
        "@id": "node/2489116238",
        "name": "Desa Sodana",
        "place": "city",
        "@timestamp": "2013-10-09T08:11:09Z",
        "@version": 1,
        "@changeset": 18260152,
        "@user": "Bahtera sumba",
        "@uid": 1247006
      },
      "geometry": {
        "type": "Point",
        "coordinates": [
          119.371986,
          -9.6895404
        ]
      }
    },
    {
      "type": "Feature",
      "id": "node/2511420569",
      "properties": {
        "@id": "node/2511420569",
        "name": "Desa Kalebu Anakaka",
        "place": "city",
        "@timestamp": "2013-10-28T12:32:26Z",
        "@version": 1,
        "@changeset": 18583600,
        "@user": "Bahtera sumba",
        "@uid": 1247006
      },
      "geometry": {
        "type": "Point",
        "coordinates": [
          119.4471746,
          -9.5306719
        ]
      }
    },
    {
      "type": "Feature",
      "id": "node/2518148508",
      "properties": {
        "@id": "node/2518148508",
        "admin_level": "5",
        "is_in:country": "Indonesia",
        "name": "Mojokerto",
        "name:en": "Mojokerto",
        "name:ja": "モジョケルト",
        "name:jv": "Majakerta",
        "name:nl": "Modjokerto",
        "name:ru": "Моджокерто",
        "name:uk": "Моджокерто",
        "name:zh": "莫佐克托",
        "place": "city",
        "source": "landsat",
        "wikipedia:id": "Kota Mojokerto",
        "@timestamp": "2015-07-05T19:18:16Z",
        "@version": 11,
        "@changeset": 32433328,
        "@user": "Ezagren",
        "@uid": 1801604
      },
      "geometry": {
        "type": "Point",
        "coordinates": [
          112.4319852,
          -7.4631537
        ]
      }
    },
    {
      "type": "Feature",
      "id": "node/2518173352",
      "properties": {
        "@id": "node/2518173352",
        "admin_level": "6",
        "alt_name": "Ngalam",
        "is_in:country_code": "ID",
        "is_in:island": "Java",
        "is_in:state": "East Java",
        "name": "Malang",
        "name:en": "Malang",
        "name:ja": "マラン",
        "name:ko": "말랑",
        "name:nl": "Malang",
        "name:ru": "Маланг",
        "name:uk": "Маланг",
        "name:zh": "瑪琅",
        "place": "city",
        "source": "landsat",
        "wikipedia": "id:Malang",
        "@timestamp": "2015-07-05T19:30:14Z",
        "@version": 7,
        "@changeset": 32433587,
        "@user": "Ezagren",
        "@uid": 1801604
      },
      "geometry": {
        "type": "Point",
        "coordinates": [
          112.6340291,
          -7.9771206
        ]
      }
    },
    {
      "type": "Feature",
      "id": "node/2531732319",
      "properties": {
        "@id": "node/2531732319",
        "is_in": "West Kalimantan, Indonesia",
        "name": "Singkawang",
        "name:ja": "シンカワン",
        "name:ru": "Синкаванг",
        "place": "city",
        "@timestamp": "2015-10-31T12:07:40Z",
        "@version": 4,
        "@changeset": 34990709,
        "@user": "etajin",
        "@uid": 2480327
      },
      "geometry": {
        "type": "Point",
        "coordinates": [
          108.9889657,
          0.9069861
        ]
      }
    },
    {
      "type": "Feature",
      "id": "node/2534456298",
      "properties": {
        "@id": "node/2534456298",
        "name": "Luwu Utara",
        "name:ja": "ルウ・ウタラ",
        "place": "city",
        "state": "Sulawesi Selatan",
        "@timestamp": "2015-10-31T12:08:26Z",
        "@version": 3,
        "@changeset": 34990709,
        "@user": "etajin",
        "@uid": 2480327
      },
      "geometry": {
        "type": "Point",
        "coordinates": [
          120.2562544,
          -2.5951257
        ]
      }
    },
    {
      "type": "Feature",
      "id": "node/2535859348",
      "properties": {
        "@id": "node/2535859348",
        "admin_level": "5",
        "name": "Madiun",
        "name:ja": "マディウン",
        "name:nl": "Madioen",
        "name:ru": "Мадиун",
        "name:zh": "茉莉芬",
        "place": "city",
        "source": "landsat",
        "wikipedia": "id:Kota Madiun",
        "@timestamp": "2015-08-12T11:52:40Z",
        "@version": 5,
        "@changeset": 33289658,
        "@user": "Ezagren",
        "@uid": 1801604
      },
      "geometry": {
        "type": "Point",
        "coordinates": [
          111.5168525,
          -7.6290949
        ]
      }
    },
    {
      "type": "Feature",
      "id": "node/2565956187",
      "properties": {
        "@id": "node/2565956187",
        "name": "Sleman",
        "place": "city",
        "@timestamp": "2013-12-05T08:31:39Z",
        "@version": 1,
        "@changeset": 19284932,
        "@user": "Bayu Adi Styawan",
        "@uid": 1705820
      },
      "geometry": {
        "type": "Point",
        "coordinates": [
          110.3419864,
          -7.6902467
        ]
      }
    },
    {
      "type": "Feature",
      "id": "node/2565956190",
      "properties": {
        "@id": "node/2565956190",
        "name": "Bantul",
        "name:ja": "バントゥール",
        "place": "city",
        "@timestamp": "2015-10-31T12:08:03Z",
        "@version": 2,
        "@changeset": 34990709,
        "@user": "etajin",
        "@uid": 2480327
      },
      "geometry": {
        "type": "Point",
        "coordinates": [
          110.3274139,
          -7.8877454
        ]
      }
    },
    {
      "type": "Feature",
      "id": "node/2565961463",
      "properties": {
        "@id": "node/2565961463",
        "name": "Klaten",
        "name:ja": "クレートン",
        "place": "city",
        "@timestamp": "2015-10-31T12:07:34Z",
        "@version": 2,
        "@changeset": 34990709,
        "@user": "etajin",
        "@uid": 2480327
      },
      "geometry": {
        "type": "Point",
        "coordinates": [
          110.6018046,
          -7.7049502
        ]
      }
    },
    {
      "type": "Feature",
      "id": "node/2571002742",
      "properties": {
        "@id": "node/2571002742",
        "name": "Singaraja",
        "name:ru": "Сингараджа",
        "place": "city",
        "@timestamp": "2014-10-06T09:05:12Z",
        "@version": 3,
        "@changeset": 25892355,
        "@user": "device25",
        "@uid": 2380181
      },
      "geometry": {
        "type": "Point",
        "coordinates": [
          115.0839326,
          -8.1133599
        ]
      }
    },
    {
      "type": "Feature",
      "id": "node/2576644117",
      "properties": {
        "@id": "node/2576644117",
        "name": "Salatiga",
        "name:ja": "サラティガ",
        "name:ru": "Салатига",
        "place": "city",
        "population": "170332",
        "wikipedia": "en:Salatiga",
        "@timestamp": "2015-11-09T22:17:30Z",
        "@version": 5,
        "@changeset": 35203704,
        "@user": "etajin",
        "@uid": 2480327
      },
      "geometry": {
        "type": "Point",
        "coordinates": [
          110.4995353,
          -7.3302642
        ]
      }
    },
    {
      "type": "Feature",
      "id": "node/2613117002",
      "properties": {
        "@id": "node/2613117002",
        "name": "Majalengka",
        "name:ja": "マジャレンカ",
        "place": "city",
        "wikipedia": "en:Majalengka",
        "@timestamp": "2015-10-31T12:08:18Z",
        "@version": 3,
        "@changeset": 34990709,
        "@user": "etajin",
        "@uid": 2480327
      },
      "geometry": {
        "type": "Point",
        "coordinates": [
          108.2277623,
          -6.8351874
        ]
      }
    },
    {
      "type": "Feature",
      "id": "node/2623306070",
      "properties": {
        "@id": "node/2623306070",
        "name": "Brebes",
        "name:ja": "ブレブス",
        "place": "city",
        "wikipedia": "en:Brebes, Brebes",
        "@timestamp": "2015-10-31T12:08:12Z",
        "@version": 3,
        "@changeset": 34990709,
        "@user": "etajin",
        "@uid": 2480327
      },
      "geometry": {
        "type": "Point",
        "coordinates": [
          109.0368843,
          -6.8705951
        ]
      }
    },
    {
      "type": "Feature",
      "id": "node/2623323569",
      "properties": {
        "@id": "node/2623323569",
        "name": "Depok",
        "name:ja": "デポック",
        "name:zh": "德波",
        "place": "city",
        "wikipedia": "en:Depok",
        "@timestamp": "2014-04-05T10:46:00Z",
        "@version": 3,
        "@changeset": 21511439,
        "@user": "Bayu Adi Styawan",
        "@uid": 1705820
      },
      "geometry": {
        "type": "Point",
        "coordinates": [
          106.8140193,
          -6.4074244
        ]
      }
    },
    {
      "type": "Feature",
      "id": "node/2623323572",
      "properties": {
        "@id": "node/2623323572",
        "name": "Cilegon",
        "name:ja": "チレゴン",
        "place": "city",
        "@timestamp": "2015-10-31T12:07:52Z",
        "@version": 2,
        "@changeset": 34990709,
        "@user": "etajin",
        "@uid": 2480327
      },
      "geometry": {
        "type": "Point",
        "coordinates": [
          106.0538342,
          -6.0172192
        ]
      }
    },
    {
      "type": "Feature",
      "id": "node/2623323577",
      "properties": {
        "@id": "node/2623323577",
        "admin_level": "4",
        "name": "Serang",
        "name:ru": "Серанг",
        "place": "city",
        "wikipedia": "en:Serang",
        "@timestamp": "2015-01-15T09:41:55Z",
        "@version": 5,
        "@changeset": 28156602,
        "@user": "a_isaeva",
        "@uid": 2335615
      },
      "geometry": {
        "type": "Point",
        "coordinates": [
          106.1518079,
          -6.1169662
        ]
      }
    },
    {
      "type": "Feature",
      "id": "node/2629397951",
      "properties": {
        "@id": "node/2629397951",
        "is_in": "Sarawak, Malaysia",
        "is_in:country": "Malaysia",
        "is_in:state": "Sarawak",
        "name": "Limbang",
        "name:ja": "リンバン",
        "place": "city",
        "@timestamp": "2015-10-31T12:08:25Z",
        "@version": 3,
        "@changeset": 34990709,
        "@user": "etajin",
        "@uid": 2480327
      },
      "geometry": {
        "type": "Point",
        "coordinates": [
          114.9992739,
          4.6290551
        ]
      }
    },
    {
      "type": "Feature",
      "id": "node/2645617385",
      "properties": {
        "@id": "node/2645617385",
        "name": "Batang",
        "name:ja": "バタン",
        "place": "city",
        "wikipedia": "en:Batang, Batang",
        "@timestamp": "2015-10-31T12:08:01Z",
        "@version": 3,
        "@changeset": 34990709,
        "@user": "etajin",
        "@uid": 2480327
      },
      "geometry": {
        "type": "Point",
        "coordinates": [
          109.7339684,
          -6.9082515
        ]
      }
    },
    {
      "type": "Feature",
      "id": "node/2778131598",
      "properties": {
        "@id": "node/2778131598",
        "capital": "yes",
        "name": "Jambi",
        "name:ja": "ジャンビ",
        "name:zh": "占碑",
        "place": "city",
        "population": "531857",
        "wikipedia": "id:Kota Jambi",
        "@timestamp": "2015-07-05T19:24:33Z",
        "@version": 5,
        "@changeset": 32433458,
        "@user": "Ezagren",
        "@uid": 1801604
      },
      "geometry": {
        "type": "Point",
        "coordinates": [
          103.5796708,
          -1.614128
        ]
      }
    },
    {
      "type": "Feature",
      "id": "node/2781151358",
      "properties": {
        "@id": "node/2781151358",
        "admin_level": "5",
        "capital": "yes",
        "is_in:country": "Indonesia",
        "is_in:county": "Bengkulu",
        "name": "Bengkulu",
        "name:en": "Bengkulu",
        "name:ja": "ブンクル",
        "name:ru": "Бенкулу",
        "name:uk": "Бенкулу",
        "name:zh": "明古魯",
        "place": "city",
        "wikipedia": "id:Kota Bengkulu",
        "@timestamp": "2015-10-31T12:08:13Z",
        "@version": 5,
        "@changeset": 34990709,
        "@user": "etajin",
        "@uid": 2480327
      },
      "geometry": {
        "type": "Point",
        "coordinates": [
          102.2623797,
          -3.7922858
        ]
      }
    },
    {
      "type": "Feature",
      "id": "node/2781151359",
      "properties": {
        "@id": "node/2781151359",
        "name": "Padang",
        "name:en": "Padang",
        "name:ja": "パダン",
        "name:ru": "Паданг",
        "name:uk": "Паданг",
        "name:zh": "巴東",
        "place": "city",
        "wikipedia": "en:Padang",
        "@timestamp": "2015-05-25T04:41:50Z",
        "@version": 3,
        "@changeset": 31434760,
        "@user": "ahmad misbah zulfa",
        "@uid": 2763956
      },
      "geometry": {
        "type": "Point",
        "coordinates": [
          100.3632561,
          -0.9247587
        ]
      }
    },
    {
      "type": "Feature",
      "id": "node/2872238032",
      "properties": {
        "@id": "node/2872238032",
        "name": "Putrajaya",
        "name:en": "Putrajaya",
        "name:ja": "プトラジャヤ",
        "name:ru": "Путраджая",
        "name:uk": "Путраджая",
        "place": "city",
        "@timestamp": "2015-10-31T12:08:13Z",
        "@version": 3,
        "@changeset": 34990709,
        "@user": "etajin",
        "@uid": 2480327
      },
      "geometry": {
        "type": "Point",
        "coordinates": [
          101.6750533,
          2.9069676
        ]
      }
    },
    {
      "type": "Feature",
      "id": "node/2886429652",
      "properties": {
        "@id": "node/2886429652",
        "admin_level": "4",
        "capital": "yes",
        "ele": "5",
        "is_in:continent": "Asia",
        "is_in:country": "Indonesia",
        "is_in:country_code": "ID",
        "is_in:state": "East Java",
        "name": "Surabaya",
        "name:en": "Surabaya",
        "name:ja": "スラバヤ",
        "name:jv": "Suroboyo",
        "name:kn": "ಸುರಬಯ",
        "name:ru": "Сурабая",
        "name:uk": "Сурабая",
        "name:zh": "泗水",
        "place": "city",
        "wikipedia": "id:Kota Surabaya",
        "@timestamp": "2015-08-10T13:53:11Z",
        "@version": 10,
        "@changeset": 33240498,
        "@user": "Bayu Adi Styawan",
        "@uid": 1705820
      },
      "geometry": {
        "type": "Point",
        "coordinates": [
          112.7378266,
          -7.2459717
        ]
      }
    },
    {
      "type": "Feature",
      "id": "node/2903768870",
      "properties": {
        "@id": "node/2903768870",
        "addr:postcode": "91412",
        "name": "Majene",
        "name:ja": "マジェネ",
        "place": "city",
        "@timestamp": "2015-10-31T12:08:17Z",
        "@version": 3,
        "@changeset": 34990709,
        "@user": "etajin",
        "@uid": 2480327
      },
      "geometry": {
        "type": "Point",
        "coordinates": [
          118.9607438,
          -3.5459286
        ]
      }
    },
    {
      "type": "Feature",
      "id": "node/2952619895",
      "properties": {
        "@id": "node/2952619895",
        "addr:postcode": "91711",
        "name": "Enrekang",
        "name:ja": "エンレカン",
        "place": "city",
        "@timestamp": "2015-10-31T12:07:30Z",
        "@version": 2,
        "@changeset": 34990709,
        "@user": "etajin",
        "@uid": 2480327
      },
      "geometry": {
        "type": "Point",
        "coordinates": [
          119.7738266,
          -3.5665238
        ]
      }
    },
    {
      "type": "Feature",
      "id": "node/3003151426",
      "properties": {
        "@id": "node/3003151426",
        "place": "city",
        "@timestamp": "2014-08-07T17:43:07Z",
        "@version": 1,
        "@changeset": 24600593,
        "@user": "ghanarider",
        "@uid": 706523
      },
      "geometry": {
        "type": "Point",
        "coordinates": [
          107.5640598,
          1.0003009
        ]
      }
    },
    {
      "type": "Feature",
      "id": "node/3054874947",
      "properties": {
        "@id": "node/3054874947",
        "name": "Wates",
        "place": "city",
        "@timestamp": "2015-10-27T03:58:34Z",
        "@version": 2,
        "@changeset": 34895724,
        "@user": "importer2015",
        "@uid": 3336659
      },
      "geometry": {
        "type": "Point",
        "coordinates": [
          110.1575738,
          -7.8583645
        ]
      }
    },
    {
      "type": "Feature",
      "id": "node/3060343521",
      "properties": {
        "@id": "node/3060343521",
        "admin_level": "5",
        "is_in:country": "Indonesia",
        "is_in:country_code": "ID",
        "is_in:province": "Banten",
        "name": "Tangerang Selatan",
        "place": "city",
        "population": "1290322",
        "website": "http://v2.tangerangselatankota.go.id/",
        "wikipedia": "id:Kota Tangerang Selatan",
        "@timestamp": "2015-01-17T03:50:43Z",
        "@version": 13,
        "@changeset": 28200749,
        "@user": "21Dirham",
        "@uid": 2538500
      },
      "geometry": {
        "type": "Point",
        "coordinates": [
          106.7085494,
          -6.2955404
        ]
      }
    },
    {
      "type": "Feature",
      "id": "node/3118105849",
      "properties": {
        "@id": "node/3118105849",
        "admin_level": "5",
        "is_in:country": "Indonesia",
        "is_in:region": "Seluma",
        "is_in:state": "Bengkulu",
        "name": "Tais",
        "name:ja": "タイス",
        "place": "city",
        "@timestamp": "2015-10-31T12:07:45Z",
        "@version": 4,
        "@changeset": 34990709,
        "@user": "etajin",
        "@uid": 2480327
      },
      "geometry": {
        "type": "Point",
        "coordinates": [
          102.5542018,
          -4.1088055
        ]
      }
    },
    {
      "type": "Feature",
      "id": "node/3244687861",
      "properties": {
        "@id": "node/3244687861",
        "name": "Kota Kinabatangan",
        "name:ja": "コタキナバタンガン",
        "place": "city",
        "@timestamp": "2015-10-31T03:40:34Z",
        "@version": 2,
        "@changeset": 34984634,
        "@user": "etajin",
        "@uid": 2480327
      },
      "geometry": {
        "type": "Point",
        "coordinates": [
          117.8466525,
          5.588993
        ]
      }
    },
    {
      "type": "Feature",
      "id": "node/3307637471",
      "properties": {
        "@id": "node/3307637471",
        "admin_level": "5",
        "name": "Purwakarta",
        "place": "city",
        "@timestamp": "2015-01-24T14:28:11Z",
        "@version": 1,
        "@changeset": 28373775,
        "@user": "Bayu Adi Styawan",
        "@uid": 1705820
      },
      "geometry": {
        "type": "Point",
        "coordinates": [
          107.4439799,
          -6.5607313
        ]
      }
    },
    {
      "type": "Feature",
      "id": "node/3380624457",
      "properties": {
        "@id": "node/3380624457",
        "name": "Bau-Bau",
        "name:ja": "バウバウ",
        "place": "city",
        "@timestamp": "2015-10-31T12:07:59Z",
        "@version": 2,
        "@changeset": 34990709,
        "@user": "etajin",
        "@uid": 2480327
      },
      "geometry": {
        "type": "Point",
        "coordinates": [
          122.6889526,
          -5.4108126
        ]
      }
    },
    {
      "type": "Feature",
      "id": "node/3419455375",
      "properties": {
        "@id": "node/3419455375",
        "is_in:country": "Indonesia",
        "name": "Tasikmalaya",
        "name:ja": "タシクマラヤ",
        "name:ru": "Тасикмалая",
        "name:uk": "Тасікмалая",
        "place": "city",
        "population": "635424",
        "wikipedia": "en:Tasikmalaya",
        "@timestamp": "2015-11-09T22:17:31Z",
        "@version": 2,
        "@changeset": 35203704,
        "@user": "etajin",
        "@uid": 2480327
      },
      "geometry": {
        "type": "Point",
        "coordinates": [
          108.2201154,
          -7.3262484
        ]
      }
    },
    {
      "type": "Feature",
      "id": "node/3420856593",
      "properties": {
        "@id": "node/3420856593",
        "is_in:country": "Indonesia",
        "name": "Poso",
        "name:ja": "ポソ",
        "place": "city",
        "wikipedia": "id:Kota Poso",
        "@timestamp": "2015-10-31T12:08:16Z",
        "@version": 3,
        "@changeset": 34990709,
        "@user": "etajin",
        "@uid": 2480327
      },
      "geometry": {
        "type": "Point",
        "coordinates": [
          120.7497935,
          -1.4008634
        ]
      }
    },
    {
      "type": "Feature",
      "id": "node/3420863107",
      "properties": {
        "@id": "node/3420863107",
        "name": "Sengkang",
        "name:ja": "セングカング",
        "place": "city",
        "population": "52786",
        "@timestamp": "2015-10-31T12:07:43Z",
        "@version": 2,
        "@changeset": 34990709,
        "@user": "etajin",
        "@uid": 2480327
      },
      "geometry": {
        "type": "Point",
        "coordinates": [
          120.0319848,
          -4.1263201
        ]
      }
    },
    {
      "type": "Feature",
      "id": "node/3461715028",
      "properties": {
        "@id": "node/3461715028",
        "alt_name": "Pageralam",
        "name": "Pagar Alam",
        "name:ja": "パガララム",
        "place": "city",
        "@timestamp": "2015-10-31T12:08:04Z",
        "@version": 2,
        "@changeset": 34990709,
        "@user": "etajin",
        "@uid": 2480327
      },
      "geometry": {
        "type": "Point",
        "coordinates": [
          103.2501603,
          -4.0209526
        ]
      }
    },
    {
      "type": "Feature",
      "id": "node/3478404969",
      "properties": {
        "@id": "node/3478404969",
        "name": "SIak Sri Indrapura",
        "name:ja": "シアク・スリ・インドラプラ",
        "place": "city",
        "population": "2000000",
        "@timestamp": "2015-10-31T12:07:39Z",
        "@version": 2,
        "@changeset": 34990709,
        "@user": "etajin",
        "@uid": 2480327
      },
      "geometry": {
        "type": "Point",
        "coordinates": [
          102.0528738,
          0.7952586
        ]
      }
    },
    {
      "type": "Feature",
      "id": "node/3514132563",
      "properties": {
        "@id": "node/3514132563",
        "name": "Metro",
        "name:ja": "メトロ",
        "place": "city",
        "population": "149361",
        "@timestamp": "2015-10-31T12:08:20Z",
        "@version": 2,
        "@changeset": 34990709,
        "@user": "etajin",
        "@uid": 2480327
      },
      "geometry": {
        "type": "Point",
        "coordinates": [
          105.3078642,
          -5.1078839
        ]
      }
    },
    {
      "type": "Feature",
      "id": "node/3555451768",
      "properties": {
        "@id": "node/3555451768",
        "is_in": "South Kalimantan, Indonesia",
        "is_in:continent": "Asia",
        "is_in:country": "Indonesia",
        "is_in:country_code": "ID",
        "name": "Banjarbaru",
        "name:en": "Banjarbaru",
        "name:ja": "バンジャルバル",
        "place": "city",
        "wikipedia": "en:Banjarbaru",
        "@timestamp": "2015-10-31T12:08:02Z",
        "@version": 2,
        "@changeset": 34990709,
        "@user": "etajin",
        "@uid": 2480327
      },
      "geometry": {
        "type": "Point",
        "coordinates": [
          114.7813663,
          -3.4462388
        ]
      }
    },
    {
      "type": "Feature",
      "id": "node/3566530964",
      "properties": {
        "@id": "node/3566530964",
        "name": "Kecamatan Lambitu",
        "place": "city",
        "@timestamp": "2015-08-07T13:06:36Z",
        "@version": 5,
        "@changeset": 33180121,
        "@user": "hasan",
        "@uid": 479296
      },
      "geometry": {
        "type": "Point",
        "coordinates": [
          118.7713524,
          -8.5769272
        ]
      }
    },
    {
      "type": "Feature",
      "id": "node/3610309104",
      "properties": {
        "@id": "node/3610309104",
        "name": "Era Square",
        "place": "city_block",
        "source": "Local Knowledge, land survey",
        "@timestamp": "2015-06-22T07:20:32Z",
        "@version": 1,
        "@changeset": 32132038,
        "@user": "TA777",
        "@uid": 2232183
      },
      "geometry": {
        "type": "Point",
        "coordinates": [
          101.9328883,
          2.7264044
        ]
      }
    },
    {
      "type": "Feature",
      "id": "node/3621237593",
      "properties": {
        "@id": "node/3621237593",
        "name": "Kecamatan Belo",
        "place": "city",
        "@timestamp": "2015-06-27T06:53:25Z",
        "@version": 1,
        "@changeset": 32237001,
        "@user": "hasan",
        "@uid": 479296
      },
      "geometry": {
        "type": "Point",
        "coordinates": [
          118.7043134,
          -8.5954577
        ]
      }
    },
    {
      "type": "Feature",
      "id": "node/3621238055",
      "properties": {
        "@id": "node/3621238055",
        "name": "Kecamatan Palibelo",
        "place": "city",
        "@timestamp": "2015-06-27T06:55:11Z",
        "@version": 1,
        "@changeset": 32237021,
        "@user": "hasan",
        "@uid": 479296
      },
      "geometry": {
        "type": "Point",
        "coordinates": [
          118.7318604,
          -8.5465951
        ]
      }
    },
    {
      "type": "Feature",
      "id": "node/3621242703",
      "properties": {
        "@id": "node/3621242703",
        "name": "Kabupaten Bima",
        "name:ja": "ビマ",
        "place": "city",
        "@timestamp": "2015-10-31T12:08:07Z",
        "@version": 3,
        "@changeset": 34990709,
        "@user": "etajin",
        "@uid": 2480327
      },
      "geometry": {
        "type": "Point",
        "coordinates": [
          118.6719665,
          -8.5637593
        ]
      }
    },
    {
      "type": "Feature",
      "id": "node/3688951830",
      "properties": {
        "@id": "node/3688951830",
        "name": "Lunyuk",
        "place": "city",
        "@timestamp": "2015-08-10T07:47:55Z",
        "@version": 1,
        "@changeset": 33232768,
        "@user": "hasan",
        "@uid": 479296
      },
      "geometry": {
        "type": "Point",
        "coordinates": [
          117.2384314,
          -8.9732213
        ]
      }
    },
    {
      "type": "Feature",
      "id": "node/3691377730",
      "properties": {
        "@id": "node/3691377730",
        "name": "Plampang",
        "place": "city",
        "@timestamp": "2015-08-11T13:24:14Z",
        "@version": 1,
        "@changeset": 33266475,
        "@user": "hasan",
        "@uid": 479296
      },
      "geometry": {
        "type": "Point",
        "coordinates": [
          117.7767042,
          -8.797687
        ]
      }
    },
    {
      "type": "Feature",
      "id": "node/3696517558",
      "properties": {
        "@id": "node/3696517558",
        "name": "Miri",
        "name:ja": "ミリ",
        "place": "city",
        "@timestamp": "2015-10-31T12:08:19Z",
        "@version": 2,
        "@changeset": 34990709,
        "@user": "etajin",
        "@uid": 2480327
      },
      "geometry": {
        "type": "Point",
        "coordinates": [
          113.9870128,
          4.3913173
        ]
      }
    },
    {
      "type": "Feature",
      "id": "node/3772923085",
      "properties": {
        "@id": "node/3772923085",
        "name": "SUMBAWA BARAT",
        "place": "city",
        "@timestamp": "2015-10-05T07:32:22Z",
        "@version": 1,
        "@changeset": 34442284,
        "@user": "hasan",
        "@uid": 479296
      },
      "geometry": {
        "type": "Point",
        "coordinates": [
          116.9161845,
          -8.658515
        ]
      }
    }
  ]
}